{
"type": "FeatureCollection",
"name": "amenity_fast_food",
"crs": { "type": "name", "properties": { "name": "urn:ogc:def:crs:OGC:1.3:CRS84" } },
"features": [
{ "type": "Feature", "properties": { "element": "node", "id": 1165439751, "amenity": "fast_food", "cuisine": "pizza", "name": "Pizzetteria \"Pizzetta d'oro\"", "wheelchair": "no", "addr:city": null, "addr:housenumber": null, "addr:postcode": null, "addr:street": null, "brand": null, "brand:wikidata": null, "brand:wikipedia": null, "takeaway": null, "toilets:wheelchair": null, "check_date": null, "cocktails": null, "outdoor_seating": null, "payment:bancomat": null, "payment:credit_cards": null, "payment:debit_cards": null, "toilets": null, "website": null, "phone": null, "contact:facebook": null, "delivery": null, "drive_through": null, "level": null, "addr:country": null, "alt_name": null, "contact:instagram": null, "opening_date": null, "opening_hours": null, "start_date": null, "source": null, "payment:cash": null, "contact:phone": null, "diet:vegetarian": null, "payment:mastercard": null, "payment:visa": null, "payment:visa_debit": null, "operator": null, "ref:vatin": null, "check_date:opening_hours": null, "indoor_seating": null, "opening_hours:signed": null, "street_vendor": null, "indoor": null, "internet_access": null, "building": null, "air_conditioning": null, "bar": null, "internet_access:fee": null }, "geometry": { "type": "Point", "coordinates": [ 9.1297526, 39.2123454 ] } },
{ "type": "Feature", "properties": { "element": "node", "id": 1602612760, "amenity": "fast_food", "cuisine": "burger", "name": "McDonald's", "wheelchair": "yes", "addr:city": "Cagliari", "addr:housenumber": "60", "addr:postcode": "09122", "addr:street": "Via San Simone", "brand": "McDonald's", "brand:wikidata": "Q38076", "brand:wikipedia": "en:McDonald's", "takeaway": "yes", "toilets:wheelchair": "yes", "check_date": null, "cocktails": null, "outdoor_seating": null, "payment:bancomat": null, "payment:credit_cards": null, "payment:debit_cards": null, "toilets": null, "website": null, "phone": null, "contact:facebook": null, "delivery": null, "drive_through": null, "level": null, "addr:country": null, "alt_name": null, "contact:instagram": null, "opening_date": null, "opening_hours": null, "start_date": null, "source": null, "payment:cash": null, "contact:phone": null, "diet:vegetarian": null, "payment:mastercard": null, "payment:visa": null, "payment:visa_debit": null, "operator": null, "ref:vatin": null, "check_date:opening_hours": null, "indoor_seating": null, "opening_hours:signed": null, "street_vendor": null, "indoor": null, "internet_access": null, "building": null, "air_conditioning": null, "bar": null, "internet_access:fee": null }, "geometry": { "type": "Point", "coordinates": [ 9.0921338, 39.231305 ] } },
{ "type": "Feature", "properties": { "element": "node", "id": 1603556603, "amenity": "fast_food", "cuisine": null, "name": null, "wheelchair": null, "addr:city": null, "addr:housenumber": null, "addr:postcode": null, "addr:street": null, "brand": null, "brand:wikidata": null, "brand:wikipedia": null, "takeaway": null, "toilets:wheelchair": null, "check_date": null, "cocktails": null, "outdoor_seating": null, "payment:bancomat": null, "payment:credit_cards": null, "payment:debit_cards": null, "toilets": null, "website": null, "phone": null, "contact:facebook": null, "delivery": null, "drive_through": null, "level": null, "addr:country": null, "alt_name": null, "contact:instagram": null, "opening_date": null, "opening_hours": null, "start_date": null, "source": null, "payment:cash": null, "contact:phone": null, "diet:vegetarian": null, "payment:mastercard": null, "payment:visa": null, "payment:visa_debit": null, "operator": null, "ref:vatin": null, "check_date:opening_hours": null, "indoor_seating": null, "opening_hours:signed": null, "street_vendor": null, "indoor": null, "internet_access": null, "building": null, "air_conditioning": null, "bar": null, "internet_access:fee": null }, "geometry": { "type": "Point", "coordinates": [ 9.1025396, 39.2329305 ] } },
{ "type": "Feature", "properties": { "element": "node", "id": 1896729272, "amenity": "fast_food", "cuisine": "sandwich", "name": "Locanda Caddeo", "wheelchair": "limited", "addr:city": "Cagliari", "addr:housenumber": "5", "addr:postcode": null, "addr:street": "Via Roma", "brand": null, "brand:wikidata": null, "brand:wikipedia": null, "takeaway": null, "toilets:wheelchair": null, "check_date": "2023-09-12", "cocktails": "yes", "outdoor_seating": "only", "payment:bancomat": "yes", "payment:credit_cards": "yes", "payment:debit_cards": "yes", "toilets": "yes", "website": "https://www.locandacaddeo.it/", "phone": null, "contact:facebook": null, "delivery": null, "drive_through": null, "level": null, "addr:country": null, "alt_name": null, "contact:instagram": null, "opening_date": null, "opening_hours": null, "start_date": null, "source": null, "payment:cash": null, "contact:phone": null, "diet:vegetarian": null, "payment:mastercard": null, "payment:visa": null, "payment:visa_debit": null, "operator": null, "ref:vatin": null, "check_date:opening_hours": null, "indoor_seating": null, "opening_hours:signed": null, "street_vendor": null, "indoor": null, "internet_access": null, "building": null, "air_conditioning": null, "bar": null, "internet_access:fee": null }, "geometry": { "type": "Point", "coordinates": [ 9.1151164, 39.2125684 ] } },
{ "type": "Feature", "properties": { "element": "node", "id": 1921706172, "amenity": "fast_food", "cuisine": "pizza", "name": "Pizzeria Federico Nansen", "wheelchair": null, "addr:city": "Cagliari", "addr:housenumber": "320", "addr:postcode": "09123", "addr:street": "Corso Vittorio Emanuele II", "brand": null, "brand:wikidata": null, "brand:wikipedia": null, "takeaway": null, "toilets:wheelchair": null, "check_date": "2023-09-10", "cocktails": null, "outdoor_seating": null, "payment:bancomat": null, "payment:credit_cards": null, "payment:debit_cards": null, "toilets": null, "website": null, "phone": null, "contact:facebook": null, "delivery": null, "drive_through": null, "level": null, "addr:country": null, "alt_name": null, "contact:instagram": null, "opening_date": null, "opening_hours": null, "start_date": null, "source": null, "payment:cash": null, "contact:phone": null, "diet:vegetarian": null, "payment:mastercard": null, "payment:visa": null, "payment:visa_debit": null, "operator": null, "ref:vatin": null, "check_date:opening_hours": null, "indoor_seating": null, "opening_hours:signed": null, "street_vendor": null, "indoor": null, "internet_access": null, "building": null, "air_conditioning": null, "bar": null, "internet_access:fee": null }, "geometry": { "type": "Point", "coordinates": [ 9.1087149, 39.2196948 ] } },
{ "type": "Feature", "properties": { "element": "node", "id": 2530460871, "amenity": "fast_food", "cuisine": "burger", "name": "Valburger", "wheelchair": "yes", "addr:city": "Cagliari", "addr:housenumber": "17", "addr:postcode": "09124", "addr:street": "Via Francesco Crispi", "brand": null, "brand:wikidata": null, "brand:wikipedia": null, "takeaway": null, "toilets:wheelchair": null, "check_date": null, "cocktails": null, "outdoor_seating": null, "payment:bancomat": null, "payment:credit_cards": null, "payment:debit_cards": null, "toilets": null, "website": "http://www.valburger.com", "phone": "+39 070 662794", "contact:facebook": null, "delivery": null, "drive_through": null, "level": null, "addr:country": null, "alt_name": null, "contact:instagram": null, "opening_date": null, "opening_hours": null, "start_date": null, "source": null, "payment:cash": null, "contact:phone": null, "diet:vegetarian": null, "payment:mastercard": null, "payment:visa": null, "payment:visa_debit": null, "operator": null, "ref:vatin": null, "check_date:opening_hours": null, "indoor_seating": null, "opening_hours:signed": null, "street_vendor": null, "indoor": null, "internet_access": null, "building": null, "air_conditioning": null, "bar": null, "internet_access:fee": null }, "geometry": { "type": "Point", "coordinates": [ 9.1107928, 39.2155313 ] } },
{ "type": "Feature", "properties": { "element": "node", "id": 2725363590, "amenity": "fast_food", "cuisine": "italian", "name": "La Cantina", "wheelchair": "no", "addr:city": "Cagliari", "addr:housenumber": null, "addr:postcode": null, "addr:street": "Via dei Mille", "brand": null, "brand:wikidata": null, "brand:wikipedia": null, "takeaway": null, "toilets:wheelchair": null, "check_date": null, "cocktails": null, "outdoor_seating": null, "payment:bancomat": null, "payment:credit_cards": null, "payment:debit_cards": null, "toilets": null, "website": null, "phone": null, "contact:facebook": null, "delivery": null, "drive_through": null, "level": null, "addr:country": null, "alt_name": null, "contact:instagram": null, "opening_date": null, "opening_hours": null, "start_date": null, "source": null, "payment:cash": null, "contact:phone": null, "diet:vegetarian": null, "payment:mastercard": null, "payment:visa": null, "payment:visa_debit": null, "operator": null, "ref:vatin": null, "check_date:opening_hours": null, "indoor_seating": null, "opening_hours:signed": null, "street_vendor": null, "indoor": null, "internet_access": null, "building": null, "air_conditioning": null, "bar": null, "internet_access:fee": null }, "geometry": { "type": "Point", "coordinates": [ 9.113431, 39.2137569 ] } },
{ "type": "Feature", "properties": { "element": "node", "id": 2864865938, "amenity": "fast_food", "cuisine": "kebab", "name": "Tasty", "wheelchair": null, "addr:city": null, "addr:housenumber": null, "addr:postcode": null, "addr:street": null, "brand": null, "brand:wikidata": null, "brand:wikipedia": null, "takeaway": null, "toilets:wheelchair": null, "check_date": null, "cocktails": null, "outdoor_seating": null, "payment:bancomat": null, "payment:credit_cards": null, "payment:debit_cards": null, "toilets": null, "website": null, "phone": null, "contact:facebook": null, "delivery": null, "drive_through": null, "level": null, "addr:country": null, "alt_name": null, "contact:instagram": null, "opening_date": null, "opening_hours": null, "start_date": null, "source": null, "payment:cash": null, "contact:phone": null, "diet:vegetarian": null, "payment:mastercard": null, "payment:visa": null, "payment:visa_debit": null, "operator": null, "ref:vatin": null, "check_date:opening_hours": null, "indoor_seating": null, "opening_hours:signed": null, "street_vendor": null, "indoor": null, "internet_access": null, "building": null, "air_conditioning": null, "bar": null, "internet_access:fee": null }, "geometry": { "type": "Point", "coordinates": [ 9.1152959, 39.2133052 ] } },
{ "type": "Feature", "properties": { "element": "node", "id": 3952241998, "amenity": "fast_food", "cuisine": "burger", "name": "Bombas Hamburgheria Sarda", "wheelchair": "no", "addr:city": "Cagliari", "addr:housenumber": "3", "addr:postcode": "09124", "addr:street": "Via Università", "brand": null, "brand:wikidata": null, "brand:wikipedia": null, "takeaway": "no", "toilets:wheelchair": null, "check_date": null, "cocktails": null, "outdoor_seating": null, "payment:bancomat": null, "payment:credit_cards": null, "payment:debit_cards": null, "toilets": null, "website": null, "phone": "+39 070 7534511", "contact:facebook": "https://www.facebook.com/Bombas-hamburgeria-sarda-1548937982019107/", "delivery": "no", "drive_through": "no", "level": "-1", "addr:country": null, "alt_name": null, "contact:instagram": null, "opening_date": null, "opening_hours": null, "start_date": null, "source": null, "payment:cash": null, "contact:phone": null, "diet:vegetarian": null, "payment:mastercard": null, "payment:visa": null, "payment:visa_debit": null, "operator": null, "ref:vatin": null, "check_date:opening_hours": null, "indoor_seating": null, "opening_hours:signed": null, "street_vendor": null, "indoor": null, "internet_access": null, "building": null, "air_conditioning": null, "bar": null, "internet_access:fee": null }, "geometry": { "type": "Point", "coordinates": [ 9.1152205, 39.2173798 ] } },
{ "type": "Feature", "properties": { "element": "node", "id": 4228916669, "amenity": "fast_food", "cuisine": "wrap", "name": "CIAO IUSER WRAP", "wheelchair": null, "addr:city": "Cagliari", "addr:housenumber": "12", "addr:postcode": null, "addr:street": "Via Alghero", "brand": null, "brand:wikidata": null, "brand:wikipedia": null, "takeaway": null, "toilets:wheelchair": null, "check_date": null, "cocktails": null, "outdoor_seating": null, "payment:bancomat": null, "payment:credit_cards": null, "payment:debit_cards": null, "toilets": null, "website": null, "phone": null, "contact:facebook": null, "delivery": null, "drive_through": null, "level": null, "addr:country": "IT", "alt_name": "IUSER WRAP", "contact:instagram": "https://www.instagram.com/iuserwrap/", "opening_date": "2025-07-04", "opening_hours": "Mo-Sa 19:00-23:00; PH unknown", "start_date": "2025-07-04", "source": null, "payment:cash": null, "contact:phone": null, "diet:vegetarian": null, "payment:mastercard": null, "payment:visa": null, "payment:visa_debit": null, "operator": null, "ref:vatin": null, "check_date:opening_hours": null, "indoor_seating": null, "opening_hours:signed": null, "street_vendor": null, "indoor": null, "internet_access": null, "building": null, "air_conditioning": null, "bar": null, "internet_access:fee": null }, "geometry": { "type": "Point", "coordinates": [ 9.1210543, 39.2181923 ] } },
{ "type": "Feature", "properties": { "element": "node", "id": 4228974642, "amenity": "fast_food", "cuisine": "kebab", "name": null, "wheelchair": null, "addr:city": "Cagliari", "addr:housenumber": "13", "addr:postcode": null, "addr:street": "Via dei Mille", "brand": null, "brand:wikidata": null, "brand:wikipedia": null, "takeaway": null, "toilets:wheelchair": null, "check_date": null, "cocktails": null, "outdoor_seating": null, "payment:bancomat": null, "payment:credit_cards": null, "payment:debit_cards": null, "toilets": null, "website": null, "phone": null, "contact:facebook": null, "delivery": null, "drive_through": null, "level": null, "addr:country": null, "alt_name": null, "contact:instagram": null, "opening_date": null, "opening_hours": null, "start_date": null, "source": "Regione Autonoma della Sardegna (www.sardegnageoportale.it)", "payment:cash": null, "contact:phone": null, "diet:vegetarian": null, "payment:mastercard": null, "payment:visa": null, "payment:visa_debit": null, "operator": null, "ref:vatin": null, "check_date:opening_hours": null, "indoor_seating": null, "opening_hours:signed": null, "street_vendor": null, "indoor": null, "internet_access": null, "building": null, "air_conditioning": null, "bar": null, "internet_access:fee": null }, "geometry": { "type": "Point", "coordinates": [ 9.113635, 39.2139484 ] } },
{ "type": "Feature", "properties": { "element": "node", "id": 4229038821, "amenity": "fast_food", "cuisine": "kebab", "name": "ZaZa Doner Kebab", "wheelchair": null, "addr:city": "Cagliari", "addr:housenumber": "2", "addr:postcode": null, "addr:street": "Via Santa Margherita", "brand": null, "brand:wikidata": null, "brand:wikipedia": null, "takeaway": null, "toilets:wheelchair": null, "check_date": null, "cocktails": null, "outdoor_seating": null, "payment:bancomat": null, "payment:credit_cards": null, "payment:debit_cards": null, "toilets": null, "website": null, "phone": null, "contact:facebook": null, "delivery": null, "drive_through": null, "level": null, "addr:country": null, "alt_name": null, "contact:instagram": null, "opening_date": null, "opening_hours": null, "start_date": null, "source": "Regione Autonoma della Sardegna (www.sardegnageoportale.it)", "payment:cash": null, "contact:phone": null, "diet:vegetarian": null, "payment:mastercard": null, "payment:visa": null, "payment:visa_debit": null, "operator": null, "ref:vatin": null, "check_date:opening_hours": null, "indoor_seating": null, "opening_hours:signed": null, "street_vendor": null, "indoor": null, "internet_access": null, "building": null, "air_conditioning": null, "bar": null, "internet_access:fee": null }, "geometry": { "type": "Point", "coordinates": [ 9.113465, 39.218231 ] } },
{ "type": "Feature", "properties": { "element": "node", "id": 4229126148, "amenity": "fast_food", "cuisine": "burger", "name": "McDonald's", "wheelchair": null, "addr:city": "Cagliari", "addr:housenumber": "34", "addr:postcode": null, "addr:street": "Via Giovanni Maria Dettori", "brand": "McDonald's", "brand:wikidata": "Q38076", "brand:wikipedia": "en:McDonald's", "takeaway": "yes", "toilets:wheelchair": null, "check_date": "2024-09-29", "cocktails": null, "outdoor_seating": "yes", "payment:bancomat": null, "payment:credit_cards": "yes", "payment:debit_cards": "yes", "toilets": null, "website": null, "phone": "+390703294424", "contact:facebook": null, "delivery": null, "drive_through": "no", "level": null, "addr:country": null, "alt_name": null, "contact:instagram": null, "opening_date": null, "opening_hours": "Mo-Fr,Su 09:00-01:00; Sa 09:00-03:00", "start_date": null, "source": null, "payment:cash": "yes", "contact:phone": null, "diet:vegetarian": null, "payment:mastercard": null, "payment:visa": null, "payment:visa_debit": null, "operator": null, "ref:vatin": null, "check_date:opening_hours": null, "indoor_seating": null, "opening_hours:signed": null, "street_vendor": null, "indoor": null, "internet_access": null, "building": null, "air_conditioning": null, "bar": null, "internet_access:fee": null }, "geometry": { "type": "Point", "coordinates": [ 9.1134429, 39.2165077 ] } },
{ "type": "Feature", "properties": { "element": "node", "id": 4229452935, "amenity": "fast_food", "cuisine": "kebab", "name": "Trikebab", "wheelchair": null, "addr:city": "Cagliari", "addr:housenumber": "40", "addr:postcode": null, "addr:street": "Via Ottone Bacaredda", "brand": null, "brand:wikidata": null, "brand:wikipedia": null, "takeaway": null, "toilets:wheelchair": null, "check_date": null, "cocktails": null, "outdoor_seating": null, "payment:bancomat": null, "payment:credit_cards": null, "payment:debit_cards": null, "toilets": null, "website": null, "phone": null, "contact:facebook": null, "delivery": null, "drive_through": null, "level": null, "addr:country": null, "alt_name": null, "contact:instagram": null, "opening_date": null, "opening_hours": null, "start_date": null, "source": "Regione Autonoma della Sardegna (www.sardegnageoportale.it)", "payment:cash": null, "contact:phone": null, "diet:vegetarian": null, "payment:mastercard": null, "payment:visa": null, "payment:visa_debit": null, "operator": null, "ref:vatin": null, "check_date:opening_hours": null, "indoor_seating": null, "opening_hours:signed": null, "street_vendor": null, "indoor": null, "internet_access": null, "building": null, "air_conditioning": null, "bar": null, "internet_access:fee": null }, "geometry": { "type": "Point", "coordinates": [ 9.12155, 39.2208265 ] } },
{ "type": "Feature", "properties": { "element": "node", "id": 4229564603, "amenity": "fast_food", "cuisine": "italian", "name": "Rustico II Panino", "wheelchair": null, "addr:city": "Cagliari", "addr:housenumber": "5", "addr:postcode": "09127", "addr:street": "Piazza San Rocco", "brand": null, "brand:wikidata": null, "brand:wikipedia": null, "takeaway": null, "toilets:wheelchair": null, "check_date": null, "cocktails": null, "outdoor_seating": null, "payment:bancomat": null, "payment:credit_cards": null, "payment:debit_cards": null, "toilets": null, "website": null, "phone": null, "contact:facebook": null, "delivery": null, "drive_through": null, "level": null, "addr:country": null, "alt_name": null, "contact:instagram": null, "opening_date": null, "opening_hours": "Mo-We 12:00-15:30, 19:30-22:30; Th-Sa 12:00-15:30, 19:30-23:00", "start_date": null, "source": "Regione Autonoma della Sardegna (www.sardegnageoportale.it)", "payment:cash": null, "contact:phone": null, "diet:vegetarian": null, "payment:mastercard": null, "payment:visa": null, "payment:visa_debit": null, "operator": null, "ref:vatin": null, "check_date:opening_hours": null, "indoor_seating": null, "opening_hours:signed": null, "street_vendor": null, "indoor": null, "internet_access": null, "building": null, "air_conditioning": null, "bar": null, "internet_access:fee": null }, "geometry": { "type": "Point", "coordinates": [ 9.1213315, 39.2226722 ] } },
{ "type": "Feature", "properties": { "element": "node", "id": 4229612310, "amenity": "fast_food", "cuisine": "pizza", "name": "Pizzeria Gustidea", "wheelchair": "limited", "addr:city": "Cagliari", "addr:housenumber": "64", "addr:postcode": null, "addr:street": "Via XX Settembre", "brand": null, "brand:wikidata": null, "brand:wikipedia": null, "takeaway": null, "toilets:wheelchair": null, "check_date": null, "cocktails": null, "outdoor_seating": null, "payment:bancomat": null, "payment:credit_cards": null, "payment:debit_cards": null, "toilets": null, "website": null, "phone": "+39 070 658074", "contact:facebook": null, "delivery": null, "drive_through": null, "level": null, "addr:country": null, "alt_name": null, "contact:instagram": null, "opening_date": null, "opening_hours": null, "start_date": null, "source": "Regione Autonoma della Sardegna (www.sardegnageoportale.it)", "payment:cash": null, "contact:phone": null, "diet:vegetarian": null, "payment:mastercard": null, "payment:visa": null, "payment:visa_debit": null, "operator": null, "ref:vatin": null, "check_date:opening_hours": null, "indoor_seating": null, "opening_hours:signed": null, "street_vendor": null, "indoor": null, "internet_access": null, "building": null, "air_conditioning": null, "bar": null, "internet_access:fee": null }, "geometry": { "type": "Point", "coordinates": [ 9.118657, 39.2131999 ] } },
{ "type": "Feature", "properties": { "element": "node", "id": 4229622685, "amenity": "fast_food", "cuisine": "italian;italian_pizza", "name": "Bria City", "wheelchair": null, "addr:city": "Cagliari", "addr:housenumber": "7", "addr:postcode": null, "addr:street": "Via Napoli", "brand": null, "brand:wikidata": null, "brand:wikipedia": null, "takeaway": "yes", "toilets:wheelchair": null, "check_date": "2023-09-09", "cocktails": null, "outdoor_seating": "pedestrian_zone", "payment:bancomat": "yes", "payment:credit_cards": null, "payment:debit_cards": null, "toilets": null, "website": null, "phone": null, "contact:facebook": null, "delivery": null, "drive_through": null, "level": null, "addr:country": null, "alt_name": null, "contact:instagram": null, "opening_date": null, "opening_hours": null, "start_date": null, "source": "Regione Autonoma della Sardegna (www.sardegnageoportale.it)", "payment:cash": "yes", "contact:phone": "+39 0700988151", "diet:vegetarian": "yes", "payment:mastercard": "yes", "payment:visa": "yes", "payment:visa_debit": "yes", "operator": null, "ref:vatin": null, "check_date:opening_hours": null, "indoor_seating": null, "opening_hours:signed": null, "street_vendor": null, "indoor": null, "internet_access": null, "building": null, "air_conditioning": null, "bar": null, "internet_access:fee": null }, "geometry": { "type": "Point", "coordinates": [ 9.1125016, 39.214316 ] } },
{ "type": "Feature", "properties": { "element": "node", "id": 4229640922, "amenity": "fast_food", "cuisine": "italian;friture", "name": "Gusto piadineria e sfiziosità", "wheelchair": null, "addr:city": "Cagliari", "addr:housenumber": "78", "addr:postcode": "09123", "addr:street": "Via Giovanni Maria Angioy", "brand": null, "brand:wikidata": null, "brand:wikipedia": null, "takeaway": null, "toilets:wheelchair": null, "check_date": null, "cocktails": null, "outdoor_seating": null, "payment:bancomat": null, "payment:credit_cards": null, "payment:debit_cards": null, "toilets": null, "website": "https://gusto-piadineria-cagliari.business.site/", "phone": "+39 328 786 0730", "contact:facebook": null, "delivery": null, "drive_through": null, "level": null, "addr:country": null, "alt_name": null, "contact:instagram": null, "opening_date": null, "opening_hours": "Mo-Su 12:00-23:30", "start_date": null, "source": "Regione Autonoma della Sardegna (www.sardegnageoportale.it)", "payment:cash": null, "contact:phone": null, "diet:vegetarian": null, "payment:mastercard": null, "payment:visa": null, "payment:visa_debit": null, "operator": null, "ref:vatin": null, "check_date:opening_hours": null, "indoor_seating": null, "opening_hours:signed": null, "street_vendor": null, "indoor": null, "internet_access": null, "building": null, "air_conditioning": null, "bar": null, "internet_access:fee": null }, "geometry": { "type": "Point", "coordinates": [ 9.112216, 39.217171 ] } },
{ "type": "Feature", "properties": { "element": "node", "id": 4229664634, "amenity": "fast_food", "cuisine": null, "name": "Arnold'z", "wheelchair": "no", "addr:city": "Cagliari", "addr:housenumber": "9", "addr:postcode": null, "addr:street": "Via dei Mille", "brand": null, "brand:wikidata": null, "brand:wikipedia": null, "takeaway": "yes", "toilets:wheelchair": null, "check_date": null, "cocktails": null, "outdoor_seating": null, "payment:bancomat": null, "payment:credit_cards": null, "payment:debit_cards": null, "toilets": null, "website": null, "phone": null, "contact:facebook": null, "delivery": null, "drive_through": null, "level": null, "addr:country": null, "alt_name": null, "contact:instagram": null, "opening_date": null, "opening_hours": null, "start_date": null, "source": "Regione Autonoma della Sardegna (www.sardegnageoportale.it)", "payment:cash": null, "contact:phone": null, "diet:vegetarian": null, "payment:mastercard": null, "payment:visa": null, "payment:visa_debit": null, "operator": null, "ref:vatin": null, "check_date:opening_hours": null, "indoor_seating": null, "opening_hours:signed": null, "street_vendor": null, "indoor": null, "internet_access": null, "building": null, "air_conditioning": null, "bar": null, "internet_access:fee": null }, "geometry": { "type": "Point", "coordinates": [ 9.1135717, 39.2138872 ] } },
{ "type": "Feature", "properties": { "element": "node", "id": 4449256154, "amenity": "fast_food", "cuisine": "regional", "name": "L'Osteria di Castello", "wheelchair": null, "addr:city": null, "addr:housenumber": "62", "addr:postcode": null, "addr:street": "Via Alberto Lamarmora", "brand": null, "brand:wikidata": null, "brand:wikipedia": null, "takeaway": null, "toilets:wheelchair": null, "check_date": null, "cocktails": null, "outdoor_seating": null, "payment:bancomat": null, "payment:credit_cards": null, "payment:debit_cards": null, "toilets": null, "website": null, "phone": null, "contact:facebook": null, "delivery": null, "drive_through": null, "level": null, "addr:country": null, "alt_name": null, "contact:instagram": null, "opening_date": null, "opening_hours": null, "start_date": null, "source": null, "payment:cash": null, "contact:phone": "+39 070 6848570", "diet:vegetarian": null, "payment:mastercard": null, "payment:visa": null, "payment:visa_debit": null, "operator": "Marchio Sardo srl", "ref:vatin": "IT03468910926", "check_date:opening_hours": null, "indoor_seating": null, "opening_hours:signed": null, "street_vendor": null, "indoor": null, "internet_access": null, "building": null, "air_conditioning": null, "bar": null, "internet_access:fee": null }, "geometry": { "type": "Point", "coordinates": [ 9.1159822, 39.2182837 ] } },
{ "type": "Feature", "properties": { "element": "node", "id": 4748805523, "amenity": "fast_food", "cuisine": null, "name": "La fucina dei sapori", "wheelchair": "no", "addr:city": null, "addr:housenumber": null, "addr:postcode": null, "addr:street": null, "brand": null, "brand:wikidata": null, "brand:wikipedia": null, "takeaway": null, "toilets:wheelchair": "no", "check_date": null, "cocktails": null, "outdoor_seating": null, "payment:bancomat": null, "payment:credit_cards": null, "payment:debit_cards": null, "toilets": null, "website": null, "phone": null, "contact:facebook": null, "delivery": null, "drive_through": null, "level": null, "addr:country": null, "alt_name": null, "contact:instagram": null, "opening_date": null, "opening_hours": null, "start_date": null, "source": null, "payment:cash": null, "contact:phone": null, "diet:vegetarian": null, "payment:mastercard": null, "payment:visa": null, "payment:visa_debit": null, "operator": null, "ref:vatin": null, "check_date:opening_hours": null, "indoor_seating": null, "opening_hours:signed": null, "street_vendor": null, "indoor": null, "internet_access": null, "building": null, "air_conditioning": null, "bar": null, "internet_access:fee": null }, "geometry": { "type": "Point", "coordinates": [ 9.1149117, 39.218265 ] } },
{ "type": "Feature", "properties": { "element": "node", "id": 4748830424, "amenity": "fast_food", "cuisine": "friture;seafood", "name": "Le Patate & Co.", "wheelchair": "no", "addr:city": "Cagliari", "addr:housenumber": "1", "addr:postcode": "09124", "addr:street": "Scalette San Sepolcro", "brand": null, "brand:wikidata": null, "brand:wikipedia": null, "takeaway": null, "toilets:wheelchair": null, "check_date": null, "cocktails": null, "outdoor_seating": "yes", "payment:bancomat": null, "payment:credit_cards": null, "payment:debit_cards": null, "toilets": null, "website": null, "phone": null, "contact:facebook": null, "delivery": null, "drive_through": null, "level": null, "addr:country": null, "alt_name": null, "contact:instagram": null, "opening_date": null, "opening_hours": null, "start_date": null, "source": null, "payment:cash": null, "contact:phone": null, "diet:vegetarian": null, "payment:mastercard": null, "payment:visa": null, "payment:visa_debit": null, "operator": null, "ref:vatin": null, "check_date:opening_hours": null, "indoor_seating": null, "opening_hours:signed": null, "street_vendor": null, "indoor": null, "internet_access": null, "building": null, "air_conditioning": null, "bar": null, "internet_access:fee": null }, "geometry": { "type": "Point", "coordinates": [ 9.114233, 39.2161071 ] } },
{ "type": "Feature", "properties": { "element": "node", "id": 9198759325, "amenity": "fast_food", "cuisine": "pizza", "name": "La Piccola Pizzetta", "wheelchair": null, "addr:city": "Cagliari", "addr:housenumber": "74", "addr:postcode": "09127", "addr:street": "Via Dante Alighieri", "brand": null, "brand:wikidata": null, "brand:wikipedia": null, "takeaway": null, "toilets:wheelchair": null, "check_date": null, "cocktails": null, "outdoor_seating": null, "payment:bancomat": null, "payment:credit_cards": null, "payment:debit_cards": null, "toilets": null, "website": null, "phone": null, "contact:facebook": null, "delivery": null, "drive_through": null, "level": null, "addr:country": null, "alt_name": null, "contact:instagram": null, "opening_date": null, "opening_hours": null, "start_date": null, "source": null, "payment:cash": null, "contact:phone": null, "diet:vegetarian": null, "payment:mastercard": null, "payment:visa": null, "payment:visa_debit": null, "operator": null, "ref:vatin": null, "check_date:opening_hours": null, "indoor_seating": null, "opening_hours:signed": null, "street_vendor": null, "indoor": null, "internet_access": null, "building": null, "air_conditioning": null, "bar": null, "internet_access:fee": null }, "geometry": { "type": "Point", "coordinates": [ 9.1247746, 39.2178719 ] } },
{ "type": "Feature", "properties": { "element": "node", "id": 9620434347, "amenity": "fast_food", "cuisine": "burger", "name": "Picanhito", "wheelchair": null, "addr:city": null, "addr:housenumber": null, "addr:postcode": null, "addr:street": null, "brand": null, "brand:wikidata": null, "brand:wikipedia": null, "takeaway": null, "toilets:wheelchair": null, "check_date": null, "cocktails": null, "outdoor_seating": null, "payment:bancomat": null, "payment:credit_cards": null, "payment:debit_cards": null, "toilets": null, "website": null, "phone": "+39 334 305 497 5", "contact:facebook": null, "delivery": null, "drive_through": "no", "level": null, "addr:country": null, "alt_name": null, "contact:instagram": null, "opening_date": null, "opening_hours": null, "start_date": null, "source": null, "payment:cash": null, "contact:phone": null, "diet:vegetarian": null, "payment:mastercard": null, "payment:visa": null, "payment:visa_debit": null, "operator": null, "ref:vatin": null, "check_date:opening_hours": null, "indoor_seating": null, "opening_hours:signed": null, "street_vendor": null, "indoor": null, "internet_access": null, "building": null, "air_conditioning": null, "bar": null, "internet_access:fee": null }, "geometry": { "type": "Point", "coordinates": [ 9.1245206, 39.2257677 ] } },
{ "type": "Feature", "properties": { "element": "node", "id": 9631026818, "amenity": "fast_food", "cuisine": null, "name": "La Bottega del Panino", "wheelchair": null, "addr:city": null, "addr:housenumber": "38", "addr:postcode": "09123", "addr:street": "Viale La Plaia", "brand": null, "brand:wikidata": null, "brand:wikipedia": null, "takeaway": null, "toilets:wheelchair": null, "check_date": null, "cocktails": null, "outdoor_seating": null, "payment:bancomat": null, "payment:credit_cards": null, "payment:debit_cards": null, "toilets": null, "website": null, "phone": "+39070662459", "contact:facebook": null, "delivery": null, "drive_through": null, "level": null, "addr:country": null, "alt_name": null, "contact:instagram": null, "opening_date": null, "opening_hours": "Mo-Fr 06:00-19:00; Sa 06:00-15:30", "start_date": null, "source": null, "payment:cash": null, "contact:phone": null, "diet:vegetarian": null, "payment:mastercard": null, "payment:visa": null, "payment:visa_debit": null, "operator": null, "ref:vatin": null, "check_date:opening_hours": "2024-07-22", "indoor_seating": null, "opening_hours:signed": null, "street_vendor": null, "indoor": null, "internet_access": null, "building": null, "air_conditioning": null, "bar": null, "internet_access:fee": null }, "geometry": { "type": "Point", "coordinates": [ 9.1064832, 39.2145138 ] } },
{ "type": "Feature", "properties": { "element": "node", "id": 10026644717, "amenity": "fast_food", "cuisine": null, "name": "Intenso", "wheelchair": null, "addr:city": null, "addr:housenumber": null, "addr:postcode": null, "addr:street": null, "brand": null, "brand:wikidata": null, "brand:wikipedia": null, "takeaway": "only", "toilets:wheelchair": null, "check_date": null, "cocktails": null, "outdoor_seating": "no", "payment:bancomat": null, "payment:credit_cards": null, "payment:debit_cards": null, "toilets": null, "website": null, "phone": null, "contact:facebook": null, "delivery": null, "drive_through": null, "level": null, "addr:country": null, "alt_name": null, "contact:instagram": null, "opening_date": null, "opening_hours": "Mo-Su 12:00-01:00", "start_date": null, "source": null, "payment:cash": null, "contact:phone": null, "diet:vegetarian": null, "payment:mastercard": null, "payment:visa": null, "payment:visa_debit": null, "operator": null, "ref:vatin": null, "check_date:opening_hours": null, "indoor_seating": "no", "opening_hours:signed": null, "street_vendor": null, "indoor": null, "internet_access": null, "building": null, "air_conditioning": null, "bar": null, "internet_access:fee": null }, "geometry": { "type": "Point", "coordinates": [ 9.1209161, 39.2185068 ] } },
{ "type": "Feature", "properties": { "element": "node", "id": 10264708068, "amenity": "fast_food", "cuisine": "fish_and_chips;sandwich", "name": "Chips Garage", "wheelchair": null, "addr:city": "Cagliari", "addr:housenumber": null, "addr:postcode": null, "addr:street": "Corso Vittorio Emanuele II", "brand": null, "brand:wikidata": null, "brand:wikipedia": null, "takeaway": null, "toilets:wheelchair": null, "check_date": null, "cocktails": null, "outdoor_seating": null, "payment:bancomat": null, "payment:credit_cards": null, "payment:debit_cards": null, "toilets": null, "website": null, "phone": null, "contact:facebook": null, "delivery": null, "drive_through": null, "level": null, "addr:country": null, "alt_name": null, "contact:instagram": null, "opening_date": null, "opening_hours": null, "start_date": null, "source": null, "payment:cash": null, "contact:phone": null, "diet:vegetarian": "yes", "payment:mastercard": null, "payment:visa": null, "payment:visa_debit": null, "operator": null, "ref:vatin": null, "check_date:opening_hours": null, "indoor_seating": null, "opening_hours:signed": null, "street_vendor": null, "indoor": null, "internet_access": null, "building": null, "air_conditioning": null, "bar": null, "internet_access:fee": null }, "geometry": { "type": "Point", "coordinates": [ 9.1124896, 39.2178354 ] } },
{ "type": "Feature", "properties": { "element": "node", "id": 10716324705, "amenity": "fast_food", "cuisine": "poke", "name": "Poke House", "wheelchair": null, "addr:city": null, "addr:housenumber": "150", "addr:postcode": "09121", "addr:street": "Via Giuseppe Garibaldi", "brand": "Poke House", "brand:wikidata": "Q123399421", "brand:wikipedia": null, "takeaway": "yes", "toilets:wheelchair": null, "check_date": null, "cocktails": null, "outdoor_seating": null, "payment:bancomat": null, "payment:credit_cards": null, "payment:debit_cards": null, "toilets": null, "website": null, "phone": null, "contact:facebook": null, "delivery": null, "drive_through": null, "level": null, "addr:country": null, "alt_name": null, "contact:instagram": null, "opening_date": null, "opening_hours": "Mo-Su 11:30-22:30", "start_date": null, "source": null, "payment:cash": null, "contact:phone": null, "diet:vegetarian": null, "payment:mastercard": null, "payment:visa": null, "payment:visa_debit": null, "operator": null, "ref:vatin": null, "check_date:opening_hours": null, "indoor_seating": null, "opening_hours:signed": null, "street_vendor": null, "indoor": null, "internet_access": null, "building": null, "air_conditioning": null, "bar": null, "internet_access:fee": null }, "geometry": { "type": "Point", "coordinates": [ 9.1192831, 39.2170628 ] } },
{ "type": "Feature", "properties": { "element": "node", "id": 11160429031, "amenity": "fast_food", "cuisine": "kebab", "name": "Sardegna Kebab & Pizza", "wheelchair": null, "addr:city": "Cagliari", "addr:housenumber": "67", "addr:postcode": null, "addr:street": "Via Sardegna", "brand": null, "brand:wikidata": null, "brand:wikipedia": null, "takeaway": "only", "toilets:wheelchair": null, "check_date": "2023-09-10", "cocktails": null, "outdoor_seating": null, "payment:bancomat": null, "payment:credit_cards": null, "payment:debit_cards": null, "toilets": null, "website": null, "phone": null, "contact:facebook": null, "delivery": null, "drive_through": "no", "level": null, "addr:country": null, "alt_name": null, "contact:instagram": null, "opening_date": null, "opening_hours": null, "start_date": null, "source": null, "payment:cash": null, "contact:phone": null, "diet:vegetarian": null, "payment:mastercard": null, "payment:visa": null, "payment:visa_debit": null, "operator": null, "ref:vatin": null, "check_date:opening_hours": null, "indoor_seating": null, "opening_hours:signed": null, "street_vendor": null, "indoor": null, "internet_access": null, "building": null, "air_conditioning": null, "bar": null, "internet_access:fee": null }, "geometry": { "type": "Point", "coordinates": [ 9.1129986, 39.2143193 ] } },
{ "type": "Feature", "properties": { "element": "node", "id": 11171755455, "amenity": "fast_food", "cuisine": "pizza", "name": "Pizzetta", "wheelchair": null, "addr:city": "Cagliari", "addr:housenumber": null, "addr:postcode": null, "addr:street": null, "brand": null, "brand:wikidata": null, "brand:wikipedia": null, "takeaway": "only", "toilets:wheelchair": null, "check_date": "2025-03-26", "cocktails": null, "outdoor_seating": null, "payment:bancomat": null, "payment:credit_cards": null, "payment:debit_cards": null, "toilets": null, "website": null, "phone": null, "contact:facebook": null, "delivery": null, "drive_through": null, "level": null, "addr:country": null, "alt_name": null, "contact:instagram": null, "opening_date": null, "opening_hours": null, "start_date": null, "source": null, "payment:cash": null, "contact:phone": null, "diet:vegetarian": null, "payment:mastercard": null, "payment:visa": null, "payment:visa_debit": null, "operator": null, "ref:vatin": null, "check_date:opening_hours": "2025-03-26", "indoor_seating": null, "opening_hours:signed": "no", "street_vendor": null, "indoor": null, "internet_access": null, "building": null, "air_conditioning": null, "bar": null, "internet_access:fee": null }, "geometry": { "type": "Point", "coordinates": [ 9.1135683, 39.2169821 ] } },
{ "type": "Feature", "properties": { "element": "node", "id": 11173612246, "amenity": "fast_food", "cuisine": "kebab", "name": null, "wheelchair": null, "addr:city": null, "addr:housenumber": null, "addr:postcode": null, "addr:street": null, "brand": null, "brand:wikidata": null, "brand:wikipedia": null, "takeaway": null, "toilets:wheelchair": null, "check_date": null, "cocktails": null, "outdoor_seating": null, "payment:bancomat": null, "payment:credit_cards": null, "payment:debit_cards": null, "toilets": null, "website": null, "phone": null, "contact:facebook": null, "delivery": null, "drive_through": null, "level": null, "addr:country": null, "alt_name": null, "contact:instagram": null, "opening_date": null, "opening_hours": null, "start_date": null, "source": null, "payment:cash": null, "contact:phone": null, "diet:vegetarian": null, "payment:mastercard": null, "payment:visa": null, "payment:visa_debit": null, "operator": null, "ref:vatin": null, "check_date:opening_hours": null, "indoor_seating": null, "opening_hours:signed": null, "street_vendor": null, "indoor": null, "internet_access": null, "building": null, "air_conditioning": null, "bar": null, "internet_access:fee": null }, "geometry": { "type": "Point", "coordinates": [ 9.1140339, 39.215456 ] } },
{ "type": "Feature", "properties": { "element": "node", "id": 11180769473, "amenity": "fast_food", "cuisine": null, "name": "La Fogazzia", "wheelchair": null, "addr:city": "Cagliari", "addr:housenumber": null, "addr:postcode": null, "addr:street": "Piazza Yenne", "brand": null, "brand:wikidata": null, "brand:wikipedia": null, "takeaway": null, "toilets:wheelchair": null, "check_date": "2025-03-26", "cocktails": null, "outdoor_seating": null, "payment:bancomat": null, "payment:credit_cards": null, "payment:debit_cards": null, "toilets": null, "website": null, "phone": null, "contact:facebook": null, "delivery": null, "drive_through": null, "level": null, "addr:country": null, "alt_name": null, "contact:instagram": null, "opening_date": null, "opening_hours": null, "start_date": null, "source": null, "payment:cash": null, "contact:phone": null, "diet:vegetarian": null, "payment:mastercard": null, "payment:visa": null, "payment:visa_debit": null, "operator": null, "ref:vatin": null, "check_date:opening_hours": "2025-03-26", "indoor_seating": null, "opening_hours:signed": "no", "street_vendor": null, "indoor": null, "internet_access": null, "building": null, "air_conditioning": null, "bar": null, "internet_access:fee": null }, "geometry": { "type": "Point", "coordinates": [ 9.1136899, 39.2171484 ] } },
{ "type": "Feature", "properties": { "element": "node", "id": 11181954236, "amenity": "fast_food", "cuisine": "burger", "name": "Italo's", "wheelchair": null, "addr:city": "Cagliari", "addr:housenumber": null, "addr:postcode": null, "addr:street": "Corso Vittorio Emanuele II", "brand": null, "brand:wikidata": null, "brand:wikipedia": null, "takeaway": null, "toilets:wheelchair": null, "check_date": "2023-09-10", "cocktails": null, "outdoor_seating": null, "payment:bancomat": null, "payment:credit_cards": null, "payment:debit_cards": null, "toilets": null, "website": null, "phone": null, "contact:facebook": null, "delivery": null, "drive_through": null, "level": null, "addr:country": null, "alt_name": null, "contact:instagram": null, "opening_date": null, "opening_hours": null, "start_date": null, "source": null, "payment:cash": null, "contact:phone": null, "diet:vegetarian": null, "payment:mastercard": null, "payment:visa": null, "payment:visa_debit": null, "operator": null, "ref:vatin": null, "check_date:opening_hours": null, "indoor_seating": null, "opening_hours:signed": null, "street_vendor": null, "indoor": null, "internet_access": null, "building": null, "air_conditioning": null, "bar": null, "internet_access:fee": null }, "geometry": { "type": "Point", "coordinates": [ 9.1082103, 39.2198983 ] } },
{ "type": "Feature", "properties": { "element": "node", "id": 11192728793, "amenity": "fast_food", "cuisine": "burger", "name": null, "wheelchair": null, "addr:city": null, "addr:housenumber": null, "addr:postcode": null, "addr:street": null, "brand": null, "brand:wikidata": null, "brand:wikipedia": null, "takeaway": null, "toilets:wheelchair": null, "check_date": null, "cocktails": null, "outdoor_seating": null, "payment:bancomat": null, "payment:credit_cards": null, "payment:debit_cards": null, "toilets": null, "website": null, "phone": null, "contact:facebook": null, "delivery": null, "drive_through": null, "level": null, "addr:country": null, "alt_name": null, "contact:instagram": null, "opening_date": null, "opening_hours": null, "start_date": null, "source": null, "payment:cash": null, "contact:phone": null, "diet:vegetarian": null, "payment:mastercard": null, "payment:visa": null, "payment:visa_debit": null, "operator": null, "ref:vatin": null, "check_date:opening_hours": null, "indoor_seating": null, "opening_hours:signed": null, "street_vendor": "yes", "indoor": null, "internet_access": null, "building": null, "air_conditioning": null, "bar": null, "internet_access:fee": null }, "geometry": { "type": "Point", "coordinates": [ 9.1613633, 39.202494 ] } },
{ "type": "Feature", "properties": { "element": "node", "id": 12441556691, "amenity": "fast_food", "cuisine": "kebab", "name": "Kebab di babà", "wheelchair": null, "addr:city": null, "addr:housenumber": null, "addr:postcode": null, "addr:street": null, "brand": null, "brand:wikidata": null, "brand:wikipedia": null, "takeaway": "only", "toilets:wheelchair": null, "check_date": null, "cocktails": null, "outdoor_seating": "no", "payment:bancomat": null, "payment:credit_cards": null, "payment:debit_cards": null, "toilets": null, "website": null, "phone": null, "contact:facebook": null, "delivery": null, "drive_through": null, "level": null, "addr:country": null, "alt_name": null, "contact:instagram": null, "opening_date": null, "opening_hours": null, "start_date": null, "source": null, "payment:cash": null, "contact:phone": null, "diet:vegetarian": null, "payment:mastercard": null, "payment:visa": null, "payment:visa_debit": null, "operator": null, "ref:vatin": null, "check_date:opening_hours": null, "indoor_seating": "no", "opening_hours:signed": null, "street_vendor": null, "indoor": "yes", "internet_access": null, "building": null, "air_conditioning": null, "bar": null, "internet_access:fee": null }, "geometry": { "type": "Point", "coordinates": [ 9.1215884, 39.2187517 ] } },
{ "type": "Feature", "properties": { "element": "node", "id": 12441560622, "amenity": "fast_food", "cuisine": "italian;pizza;regional", "name": "Siciliamo", "wheelchair": "no", "addr:city": null, "addr:housenumber": null, "addr:postcode": null, "addr:street": null, "brand": null, "brand:wikidata": null, "brand:wikipedia": null, "takeaway": null, "toilets:wheelchair": null, "check_date": null, "cocktails": null, "outdoor_seating": "no", "payment:bancomat": null, "payment:credit_cards": null, "payment:debit_cards": null, "toilets": null, "website": null, "phone": null, "contact:facebook": null, "delivery": null, "drive_through": null, "level": null, "addr:country": null, "alt_name": null, "contact:instagram": null, "opening_date": null, "opening_hours": null, "start_date": null, "source": null, "payment:cash": null, "contact:phone": null, "diet:vegetarian": null, "payment:mastercard": null, "payment:visa": null, "payment:visa_debit": null, "operator": null, "ref:vatin": null, "check_date:opening_hours": null, "indoor_seating": "yes", "opening_hours:signed": null, "street_vendor": null, "indoor": "yes", "internet_access": null, "building": null, "air_conditioning": null, "bar": null, "internet_access:fee": null }, "geometry": { "type": "Point", "coordinates": [ 9.1208856, 39.218484 ] } },
{ "type": "Feature", "properties": { "element": "node", "id": 12592938948, "amenity": "fast_food", "cuisine": "burger", "name": "Pan-etto", "wheelchair": null, "addr:city": null, "addr:housenumber": null, "addr:postcode": null, "addr:street": null, "brand": null, "brand:wikidata": null, "brand:wikipedia": null, "takeaway": null, "toilets:wheelchair": null, "check_date": null, "cocktails": null, "outdoor_seating": null, "payment:bancomat": null, "payment:credit_cards": null, "payment:debit_cards": null, "toilets": null, "website": null, "phone": null, "contact:facebook": null, "delivery": null, "drive_through": "no", "level": null, "addr:country": null, "alt_name": null, "contact:instagram": null, "opening_date": null, "opening_hours": null, "start_date": null, "source": null, "payment:cash": null, "contact:phone": null, "diet:vegetarian": null, "payment:mastercard": null, "payment:visa": null, "payment:visa_debit": null, "operator": null, "ref:vatin": null, "check_date:opening_hours": null, "indoor_seating": null, "opening_hours:signed": null, "street_vendor": null, "indoor": null, "internet_access": null, "building": null, "air_conditioning": null, "bar": null, "internet_access:fee": null }, "geometry": { "type": "Point", "coordinates": [ 9.1171724, 39.2157223 ] } },
{ "type": "Feature", "properties": { "element": "node", "id": 12658425901, "amenity": "fast_food", "cuisine": "italian_pizza", "name": "Alice Pizza", "wheelchair": null, "addr:city": null, "addr:housenumber": null, "addr:postcode": null, "addr:street": null, "brand": null, "brand:wikidata": null, "brand:wikipedia": null, "takeaway": null, "toilets:wheelchair": null, "check_date": null, "cocktails": null, "outdoor_seating": null, "payment:bancomat": null, "payment:credit_cards": null, "payment:debit_cards": null, "toilets": null, "website": null, "phone": null, "contact:facebook": null, "delivery": null, "drive_through": null, "level": null, "addr:country": null, "alt_name": null, "contact:instagram": null, "opening_date": null, "opening_hours": null, "start_date": null, "source": null, "payment:cash": null, "contact:phone": null, "diet:vegetarian": null, "payment:mastercard": null, "payment:visa": null, "payment:visa_debit": null, "operator": null, "ref:vatin": null, "check_date:opening_hours": null, "indoor_seating": null, "opening_hours:signed": null, "street_vendor": null, "indoor": null, "internet_access": null, "building": null, "air_conditioning": null, "bar": null, "internet_access:fee": null }, "geometry": { "type": "Point", "coordinates": [ 9.1192642, 39.2170239 ] } },
{ "type": "Feature", "properties": { "element": "node", "id": 12772323507, "amenity": "fast_food", "cuisine": null, "name": null, "wheelchair": null, "addr:city": null, "addr:housenumber": null, "addr:postcode": null, "addr:street": null, "brand": null, "brand:wikidata": null, "brand:wikipedia": null, "takeaway": null, "toilets:wheelchair": null, "check_date": null, "cocktails": null, "outdoor_seating": null, "payment:bancomat": null, "payment:credit_cards": null, "payment:debit_cards": null, "toilets": null, "website": null, "phone": null, "contact:facebook": null, "delivery": null, "drive_through": null, "level": null, "addr:country": null, "alt_name": null, "contact:instagram": null, "opening_date": null, "opening_hours": null, "start_date": null, "source": null, "payment:cash": null, "contact:phone": null, "diet:vegetarian": null, "payment:mastercard": null, "payment:visa": null, "payment:visa_debit": null, "operator": null, "ref:vatin": null, "check_date:opening_hours": null, "indoor_seating": null, "opening_hours:signed": null, "street_vendor": null, "indoor": null, "internet_access": null, "building": null, "air_conditioning": null, "bar": null, "internet_access:fee": null }, "geometry": { "type": "Point", "coordinates": [ 9.0987519, 39.2386349 ] } },
{ "type": "Feature", "properties": { "element": "node", "id": 12898139274, "amenity": "fast_food", "cuisine": "pizza;burger;sandwich", "name": "Super Speedy Pizza", "wheelchair": null, "addr:city": "Cagliari", "addr:housenumber": "31", "addr:postcode": "09122", "addr:street": "Via Abruzzi", "brand": null, "brand:wikidata": null, "brand:wikipedia": null, "takeaway": null, "toilets:wheelchair": null, "check_date": null, "cocktails": null, "outdoor_seating": null, "payment:bancomat": null, "payment:credit_cards": null, "payment:debit_cards": null, "toilets": null, "website": null, "phone": null, "contact:facebook": null, "delivery": null, "drive_through": null, "level": null, "addr:country": null, "alt_name": null, "contact:instagram": null, "opening_date": null, "opening_hours": null, "start_date": null, "source": null, "payment:cash": null, "contact:phone": null, "diet:vegetarian": null, "payment:mastercard": null, "payment:visa": null, "payment:visa_debit": null, "operator": null, "ref:vatin": null, "check_date:opening_hours": null, "indoor_seating": null, "opening_hours:signed": null, "street_vendor": null, "indoor": null, "internet_access": null, "building": null, "air_conditioning": null, "bar": null, "internet_access:fee": null }, "geometry": { "type": "Point", "coordinates": [ 9.1008653, 39.2408898 ] } },
{ "type": "Feature", "properties": { "element": "node", "id": 13250746829, "amenity": "fast_food", "cuisine": "regional;burger;italian;sandwich", "name": "The Princesses", "wheelchair": null, "addr:city": null, "addr:housenumber": null, "addr:postcode": null, "addr:street": null, "brand": null, "brand:wikidata": null, "brand:wikipedia": null, "takeaway": "yes", "toilets:wheelchair": null, "check_date": null, "cocktails": null, "outdoor_seating": "yes", "payment:bancomat": null, "payment:credit_cards": null, "payment:debit_cards": null, "toilets": null, "website": null, "phone": null, "contact:facebook": null, "delivery": null, "drive_through": "no", "level": null, "addr:country": null, "alt_name": null, "contact:instagram": null, "opening_date": null, "opening_hours": "Mo-Su 11:00-02:00", "start_date": null, "source": null, "payment:cash": null, "contact:phone": null, "diet:vegetarian": null, "payment:mastercard": null, "payment:visa": null, "payment:visa_debit": null, "operator": null, "ref:vatin": null, "check_date:opening_hours": null, "indoor_seating": null, "opening_hours:signed": null, "street_vendor": null, "indoor": null, "internet_access": "no", "building": null, "air_conditioning": null, "bar": null, "internet_access:fee": null }, "geometry": { "type": "Point", "coordinates": [ 9.1599233, 39.1930075 ] } },
{ "type": "Feature", "properties": { "element": "way", "id": 118609185, "amenity": "fast_food", "cuisine": "burger", "name": "McDonald's", "wheelchair": null, "addr:city": null, "addr:housenumber": null, "addr:postcode": null, "addr:street": null, "brand": "McDonald's", "brand:wikidata": "Q38076", "brand:wikipedia": "en:McDonald's", "takeaway": "yes", "toilets:wheelchair": null, "check_date": null, "cocktails": null, "outdoor_seating": null, "payment:bancomat": null, "payment:credit_cards": null, "payment:debit_cards": null, "toilets": null, "website": null, "phone": null, "contact:facebook": null, "delivery": null, "drive_through": null, "level": null, "addr:country": null, "alt_name": null, "contact:instagram": null, "opening_date": null, "opening_hours": null, "start_date": null, "source": null, "payment:cash": null, "contact:phone": null, "diet:vegetarian": null, "payment:mastercard": null, "payment:visa": null, "payment:visa_debit": null, "operator": "McDonald's", "ref:vatin": null, "check_date:opening_hours": null, "indoor_seating": null, "opening_hours:signed": null, "street_vendor": null, "indoor": null, "internet_access": null, "building": "yes", "air_conditioning": null, "bar": null, "internet_access:fee": null }, "geometry": { "type": "Polygon", "coordinates": [ [ [ 9.1201691, 39.2280763 ], [ 9.1203367, 39.2280666 ], [ 9.1203307, 39.2280037 ], [ 9.1203478, 39.2280027 ], [ 9.1203433, 39.2279542 ], [ 9.120326, 39.2279551 ], [ 9.1203234, 39.2279284 ], [ 9.1203409, 39.2279275 ], [ 9.1203363, 39.2278781 ], [ 9.1203187, 39.2278791 ], [ 9.1203114, 39.2278036 ], [ 9.1201437, 39.2278133 ], [ 9.1201514, 39.2278932 ], [ 9.1201639, 39.2280231 ], [ 9.1201691, 39.2280763 ] ] ] } },
{ "type": "Feature", "properties": { "element": "way", "id": 277185155, "amenity": "fast_food", "cuisine": "burger", "name": "Burger King", "wheelchair": null, "addr:city": null, "addr:housenumber": null, "addr:postcode": null, "addr:street": null, "brand": "Burger King", "brand:wikidata": "Q177054", "brand:wikipedia": "en:Burger King", "takeaway": "yes", "toilets:wheelchair": null, "check_date": null, "cocktails": null, "outdoor_seating": null, "payment:bancomat": null, "payment:credit_cards": null, "payment:debit_cards": null, "toilets": null, "website": null, "phone": null, "contact:facebook": null, "delivery": null, "drive_through": "yes", "level": null, "addr:country": null, "alt_name": null, "contact:instagram": null, "opening_date": null, "opening_hours": null, "start_date": null, "source": null, "payment:cash": null, "contact:phone": null, "diet:vegetarian": null, "payment:mastercard": null, "payment:visa": null, "payment:visa_debit": null, "operator": null, "ref:vatin": null, "check_date:opening_hours": null, "indoor_seating": null, "opening_hours:signed": null, "street_vendor": null, "indoor": null, "internet_access": null, "building": "yes", "air_conditioning": null, "bar": null, "internet_access:fee": null }, "geometry": { "type": "Polygon", "coordinates": [ [ [ 9.1240035, 39.2385842 ], [ 9.1241956, 39.2384491 ], [ 9.1240953, 39.2383628 ], [ 9.1241319, 39.2383371 ], [ 9.1239641, 39.2381927 ], [ 9.123931, 39.2382161 ], [ 9.1239116, 39.2381995 ], [ 9.1237211, 39.2383334 ], [ 9.12374, 39.2383502 ], [ 9.1237045, 39.2383752 ], [ 9.12387, 39.2385176 ], [ 9.1239009, 39.2384959 ], [ 9.1240035, 39.2385842 ] ] ] } },
{ "type": "Feature", "properties": { "element": "way", "id": 556235853, "amenity": "fast_food", "cuisine": "burger", "name": "McDonald's", "wheelchair": "yes", "addr:city": "Cagliari", "addr:housenumber": "3", "addr:postcode": "09121", "addr:street": "Via Giuseppe Peretti", "brand": "McDonald's", "brand:wikidata": "Q38076", "brand:wikipedia": "en:McDonald's", "takeaway": "yes", "toilets:wheelchair": null, "check_date": null, "cocktails": null, "outdoor_seating": "yes", "payment:bancomat": null, "payment:credit_cards": null, "payment:debit_cards": null, "toilets": null, "website": null, "phone": null, "contact:facebook": null, "delivery": null, "drive_through": "yes", "level": null, "addr:country": null, "alt_name": null, "contact:instagram": null, "opening_date": null, "opening_hours": null, "start_date": null, "source": null, "payment:cash": null, "contact:phone": null, "diet:vegetarian": null, "payment:mastercard": null, "payment:visa": null, "payment:visa_debit": null, "operator": "Gigioser S.r.l.", "ref:vatin": null, "check_date:opening_hours": null, "indoor_seating": null, "opening_hours:signed": null, "street_vendor": null, "indoor": null, "internet_access": "wlan", "building": "yes", "air_conditioning": "yes", "bar": "yes", "internet_access:fee": "no" }, "geometry": { "type": "Polygon", "coordinates": [ [ [ 9.1126323, 39.2507044 ], [ 9.1125843, 39.250594 ], [ 9.1125427, 39.2506049 ], [ 9.1124694, 39.2504363 ], [ 9.1125665, 39.250411 ], [ 9.1126432, 39.2505873 ], [ 9.1129655, 39.2505032 ], [ 9.1130101, 39.2506058 ], [ 9.1126323, 39.2507044 ] ] ] } }
]
}
