{
"type": "FeatureCollection",
"name": "amenity_ice_cream",
"crs": { "type": "name", "properties": { "name": "urn:ogc:def:crs:OGC:1.3:CRS84" } },
"features": [
{ "type": "Feature", "properties": { "element": "node", "id": 2002901576, "amenity": "ice_cream", "cuisine": "ice_cream", "name": "Bobocono", "addr:city": null, "addr:housenumber": null, "addr:street": null, "indoor_seating": null, "outdoor_seating": null, "addr:postcode": null, "takeaway": null, "wheelchair": null, "check_date": null, "payment:cash": null, "payment:credit_cards": null, "payment:debit_cards": null, "payment:satispay": null, "phone": null, "website": null, "check_date:opening_hours": null, "opening_hours:signed": null, "addr:country": null, "opening_hours": null, "operator": null, "payment:bancomat": null, "payment:mastercard": null, "payment:visa": null, "payment:visa_electron": null, "source": null, "shop": null, "ice_cream": null, "indoor": null, "building:levels": null }, "geometry": { "type": "Point", "coordinates": [ 9.1195539, 39.2158976 ] } },
{ "type": "Feature", "properties": { "element": "node", "id": 2478195124, "amenity": "ice_cream", "cuisine": null, "name": "Tutto Gelato", "addr:city": null, "addr:housenumber": null, "addr:street": null, "indoor_seating": null, "outdoor_seating": null, "addr:postcode": null, "takeaway": null, "wheelchair": null, "check_date": null, "payment:cash": null, "payment:credit_cards": null, "payment:debit_cards": null, "payment:satispay": null, "phone": null, "website": null, "check_date:opening_hours": null, "opening_hours:signed": null, "addr:country": null, "opening_hours": null, "operator": null, "payment:bancomat": null, "payment:mastercard": null, "payment:visa": null, "payment:visa_electron": null, "source": null, "shop": null, "ice_cream": null, "indoor": null, "building:levels": null }, "geometry": { "type": "Point", "coordinates": [ 9.1506028, 39.1969332 ] } },
{ "type": "Feature", "properties": { "element": "node", "id": 2523242146, "amenity": "ice_cream", "cuisine": null, "name": "Cremeria Ritz", "addr:city": "Cagliari", "addr:housenumber": "70", "addr:street": "Via Sassari", "indoor_seating": "yes", "outdoor_seating": "no", "addr:postcode": null, "takeaway": null, "wheelchair": null, "check_date": null, "payment:cash": null, "payment:credit_cards": null, "payment:debit_cards": null, "payment:satispay": null, "phone": null, "website": null, "check_date:opening_hours": null, "opening_hours:signed": null, "addr:country": null, "opening_hours": null, "operator": null, "payment:bancomat": null, "payment:mastercard": null, "payment:visa": null, "payment:visa_electron": null, "source": null, "shop": null, "ice_cream": null, "indoor": null, "building:levels": null }, "geometry": { "type": "Point", "coordinates": [ 9.1107247, 39.2172166 ] } },
{ "type": "Feature", "properties": { "element": "node", "id": 2554208946, "amenity": "ice_cream", "cuisine": null, "name": "Gocce di Gelato e Cioccolato", "addr:city": "Cagliari", "addr:housenumber": "21", "addr:street": "Piazza del Carmine", "indoor_seating": null, "outdoor_seating": null, "addr:postcode": "09124", "takeaway": "yes", "wheelchair": "no", "check_date": null, "payment:cash": null, "payment:credit_cards": null, "payment:debit_cards": null, "payment:satispay": null, "phone": null, "website": null, "check_date:opening_hours": null, "opening_hours:signed": null, "addr:country": null, "opening_hours": null, "operator": null, "payment:bancomat": null, "payment:mastercard": null, "payment:visa": null, "payment:visa_electron": null, "source": null, "shop": null, "ice_cream": null, "indoor": null, "building:levels": null }, "geometry": { "type": "Point", "coordinates": [ 9.1087958, 39.2165764 ] } },
{ "type": "Feature", "properties": { "element": "node", "id": 2727020584, "amenity": "ice_cream", "cuisine": null, "name": "Gelateria PeterPan", "addr:city": null, "addr:housenumber": "1", "addr:street": "Via Roma", "indoor_seating": "yes", "outdoor_seating": "pedestrian_zone", "addr:postcode": null, "takeaway": "yes", "wheelchair": "limited", "check_date": "2023-09-12", "payment:cash": "yes", "payment:credit_cards": "yes", "payment:debit_cards": "yes", "payment:satispay": "no", "phone": "+39 070 658900", "website": "http://www.gelateriapeterpan.com/", "check_date:opening_hours": null, "opening_hours:signed": null, "addr:country": null, "opening_hours": null, "operator": null, "payment:bancomat": null, "payment:mastercard": null, "payment:visa": null, "payment:visa_electron": null, "source": null, "shop": null, "ice_cream": null, "indoor": null, "building:levels": null }, "geometry": { "type": "Point", "coordinates": [ 9.1151967, 39.2125283 ] } },
{ "type": "Feature", "properties": { "element": "node", "id": 2744525777, "amenity": "ice_cream", "cuisine": "ice_cream", "name": "Stefino", "addr:city": null, "addr:housenumber": null, "addr:street": null, "indoor_seating": null, "outdoor_seating": null, "addr:postcode": null, "takeaway": null, "wheelchair": "yes", "check_date": null, "payment:cash": null, "payment:credit_cards": null, "payment:debit_cards": null, "payment:satispay": null, "phone": null, "website": "https://www.stefino.it/", "check_date:opening_hours": null, "opening_hours:signed": null, "addr:country": null, "opening_hours": null, "operator": null, "payment:bancomat": null, "payment:mastercard": null, "payment:visa": null, "payment:visa_electron": null, "source": null, "shop": null, "ice_cream": null, "indoor": null, "building:levels": null }, "geometry": { "type": "Point", "coordinates": [ 9.1135013, 39.2164514 ] } },
{ "type": "Feature", "properties": { "element": "node", "id": 2780542109, "amenity": "ice_cream", "cuisine": null, "name": "Cremoso", "addr:city": null, "addr:housenumber": null, "addr:street": null, "indoor_seating": null, "outdoor_seating": null, "addr:postcode": null, "takeaway": null, "wheelchair": "no", "check_date": null, "payment:cash": null, "payment:credit_cards": null, "payment:debit_cards": null, "payment:satispay": null, "phone": null, "website": null, "check_date:opening_hours": null, "opening_hours:signed": null, "addr:country": null, "opening_hours": null, "operator": null, "payment:bancomat": null, "payment:mastercard": null, "payment:visa": null, "payment:visa_electron": null, "source": null, "shop": null, "ice_cream": null, "indoor": null, "building:levels": null }, "geometry": { "type": "Point", "coordinates": [ 9.1116695, 39.2163501 ] } },
{ "type": "Feature", "properties": { "element": "node", "id": 3529411763, "amenity": "ice_cream", "cuisine": null, "name": "Smeet", "addr:city": "Cagliari", "addr:housenumber": "35", "addr:street": "Piazza Yenne", "indoor_seating": null, "outdoor_seating": null, "addr:postcode": "09124", "takeaway": null, "wheelchair": null, "check_date": null, "payment:cash": null, "payment:credit_cards": null, "payment:debit_cards": null, "payment:satispay": null, "phone": "+39 070 659824", "website": null, "check_date:opening_hours": "2025-03-26", "opening_hours:signed": "no", "addr:country": null, "opening_hours": null, "operator": null, "payment:bancomat": null, "payment:mastercard": null, "payment:visa": null, "payment:visa_electron": null, "source": null, "shop": null, "ice_cream": null, "indoor": null, "building:levels": null }, "geometry": { "type": "Point", "coordinates": [ 9.1137363, 39.2173181 ] } },
{ "type": "Feature", "properties": { "element": "node", "id": 3700848917, "amenity": "ice_cream", "cuisine": null, "name": "Gelateria Vaniglia e Pistacchio", "addr:city": "Cagliari", "addr:housenumber": "30", "addr:street": "Via Napoli", "indoor_seating": "no", "outdoor_seating": "yes", "addr:postcode": "09124", "takeaway": null, "wheelchair": null, "check_date": null, "payment:cash": "yes", "payment:credit_cards": null, "payment:debit_cards": null, "payment:satispay": null, "phone": null, "website": null, "check_date:opening_hours": null, "opening_hours:signed": null, "addr:country": "IT", "opening_hours": "Mo-Su,PH 12:00-24:00", "operator": "Verde Pistacchio s.r.l.", "payment:bancomat": "yes", "payment:mastercard": "yes", "payment:visa": "yes", "payment:visa_electron": "yes", "source": null, "shop": null, "ice_cream": null, "indoor": null, "building:levels": null }, "geometry": { "type": "Point", "coordinates": [ 9.1128293, 39.214762 ] } },
{ "type": "Feature", "properties": { "element": "node", "id": 3759515458, "amenity": "ice_cream", "cuisine": null, "name": "Gelateria Amore Mio 2", "addr:city": null, "addr:housenumber": null, "addr:street": null, "indoor_seating": null, "outdoor_seating": null, "addr:postcode": null, "takeaway": null, "wheelchair": "limited", "check_date": null, "payment:cash": null, "payment:credit_cards": null, "payment:debit_cards": null, "payment:satispay": null, "phone": null, "website": null, "check_date:opening_hours": null, "opening_hours:signed": null, "addr:country": null, "opening_hours": null, "operator": null, "payment:bancomat": null, "payment:mastercard": null, "payment:visa": null, "payment:visa_electron": null, "source": null, "shop": null, "ice_cream": null, "indoor": null, "building:levels": null }, "geometry": { "type": "Point", "coordinates": [ 9.1137928, 39.2160513 ] } },
{ "type": "Feature", "properties": { "element": "node", "id": 4228994025, "amenity": "ice_cream", "cuisine": null, "name": "Ice Gentrum", "addr:city": "Cagliari", "addr:housenumber": "144", "addr:street": "Via Is Mirrionis", "indoor_seating": null, "outdoor_seating": null, "addr:postcode": null, "takeaway": null, "wheelchair": null, "check_date": null, "payment:cash": null, "payment:credit_cards": null, "payment:debit_cards": null, "payment:satispay": null, "phone": null, "website": null, "check_date:opening_hours": null, "opening_hours:signed": null, "addr:country": null, "opening_hours": null, "operator": null, "payment:bancomat": null, "payment:mastercard": null, "payment:visa": null, "payment:visa_electron": null, "source": "Regione Autonoma della Sardegna (www.sardegnageoportale.it)", "shop": null, "ice_cream": null, "indoor": null, "building:levels": null }, "geometry": { "type": "Point", "coordinates": [ 9.1029925, 39.2377136 ] } },
{ "type": "Feature", "properties": { "element": "node", "id": 4229651102, "amenity": "ice_cream", "cuisine": null, "name": "Gelato Aresu", "addr:city": "Cagliari", "addr:housenumber": "58", "addr:street": "Via Vincenzo Monti", "indoor_seating": null, "outdoor_seating": null, "addr:postcode": "09128", "takeaway": null, "wheelchair": null, "check_date": null, "payment:cash": null, "payment:credit_cards": null, "payment:debit_cards": null, "payment:satispay": null, "phone": null, "website": null, "check_date:opening_hours": null, "opening_hours:signed": null, "addr:country": null, "opening_hours": null, "operator": null, "payment:bancomat": null, "payment:mastercard": null, "payment:visa": null, "payment:visa_electron": null, "source": null, "shop": null, "ice_cream": null, "indoor": null, "building:levels": null }, "geometry": { "type": "Point", "coordinates": [ 9.12221, 39.2211183 ] } },
{ "type": "Feature", "properties": { "element": "node", "id": 4229653655, "amenity": "ice_cream", "cuisine": null, "name": "PeterPan", "addr:city": "Cagliari", "addr:housenumber": "83b", "addr:street": "Via Dante Alighieri", "indoor_seating": null, "outdoor_seating": null, "addr:postcode": null, "takeaway": null, "wheelchair": null, "check_date": null, "payment:cash": null, "payment:credit_cards": null, "payment:debit_cards": null, "payment:satispay": null, "phone": null, "website": null, "check_date:opening_hours": null, "opening_hours:signed": null, "addr:country": null, "opening_hours": "Mo-Su 11:30-22:30", "operator": null, "payment:bancomat": null, "payment:mastercard": null, "payment:visa": null, "payment:visa_electron": null, "source": "Regione Autonoma della Sardegna (www.sardegnageoportale.it)", "shop": null, "ice_cream": null, "indoor": null, "building:levels": null }, "geometry": { "type": "Point", "coordinates": [ 9.1252316, 39.2219587 ] } },
{ "type": "Feature", "properties": { "element": "node", "id": 4229664933, "amenity": "ice_cream", "cuisine": null, "name": "Cioccogelateria Elfè", "addr:city": "Cagliari", "addr:housenumber": "90", "addr:street": "Via Santa Maria Chiara", "indoor_seating": null, "outdoor_seating": null, "addr:postcode": null, "takeaway": null, "wheelchair": null, "check_date": null, "payment:cash": null, "payment:credit_cards": null, "payment:debit_cards": null, "payment:satispay": null, "phone": null, "website": null, "check_date:opening_hours": null, "opening_hours:signed": null, "addr:country": null, "opening_hours": null, "operator": null, "payment:bancomat": null, "payment:mastercard": null, "payment:visa": null, "payment:visa_electron": null, "source": "Regione Autonoma della Sardegna (www.sardegnageoportale.it)", "shop": null, "ice_cream": null, "indoor": null, "building:levels": null }, "geometry": { "type": "Point", "coordinates": [ 9.1235359, 39.2432812 ] } },
{ "type": "Feature", "properties": { "element": "node", "id": 7682303031, "amenity": "ice_cream", "cuisine": null, "name": "070.cafe Cremeria del Corso", "addr:city": "Cagliari", "addr:housenumber": "49", "addr:street": "Corso Vittorio Emanuele II", "indoor_seating": null, "outdoor_seating": null, "addr:postcode": null, "takeaway": null, "wheelchair": null, "check_date": null, "payment:cash": null, "payment:credit_cards": null, "payment:debit_cards": null, "payment:satispay": null, "phone": null, "website": null, "check_date:opening_hours": null, "opening_hours:signed": null, "addr:country": null, "opening_hours": "Mo-Th, Su 07:00-21:00; Fr, Sa 07:00-00:00", "operator": null, "payment:bancomat": null, "payment:mastercard": null, "payment:visa": null, "payment:visa_electron": null, "source": null, "shop": null, "ice_cream": null, "indoor": null, "building:levels": null }, "geometry": { "type": "Point", "coordinates": [ 9.1123062, 39.2179411 ] } },
{ "type": "Feature", "properties": { "element": "node", "id": 11171717653, "amenity": "ice_cream", "cuisine": null, "name": "Kremet Gelateria", "addr:city": "Cagliari", "addr:housenumber": "22", "addr:street": "Piazza Yenne", "indoor_seating": null, "outdoor_seating": null, "addr:postcode": "09124", "takeaway": null, "wheelchair": null, "check_date": "2023-09-06", "payment:cash": null, "payment:credit_cards": null, "payment:debit_cards": null, "payment:satispay": null, "phone": null, "website": null, "check_date:opening_hours": null, "opening_hours:signed": null, "addr:country": null, "opening_hours": null, "operator": null, "payment:bancomat": null, "payment:mastercard": null, "payment:visa": null, "payment:visa_electron": null, "source": null, "shop": null, "ice_cream": null, "indoor": null, "building:levels": null }, "geometry": { "type": "Point", "coordinates": [ 9.1138624, 39.2176449 ] } },
{ "type": "Feature", "properties": { "element": "node", "id": 11181983443, "amenity": "ice_cream", "cuisine": null, "name": "Il gelatificio di Federico", "addr:city": "Cagliari", "addr:housenumber": null, "addr:street": "Corso Vittorio Emanuele II", "indoor_seating": "yes", "outdoor_seating": "yes", "addr:postcode": null, "takeaway": null, "wheelchair": null, "check_date": "2025-05-18", "payment:cash": null, "payment:credit_cards": null, "payment:debit_cards": null, "payment:satispay": null, "phone": null, "website": null, "check_date:opening_hours": "2025-05-18", "opening_hours:signed": "no", "addr:country": null, "opening_hours": null, "operator": null, "payment:bancomat": null, "payment:mastercard": null, "payment:visa": null, "payment:visa_electron": null, "source": null, "shop": null, "ice_cream": null, "indoor": null, "building:levels": null }, "geometry": { "type": "Point", "coordinates": [ 9.1098923, 39.2189791 ] } },
{ "type": "Feature", "properties": { "element": "node", "id": 11185724097, "amenity": "ice_cream", "cuisine": null, "name": "Sugelau", "addr:city": "Cagliari", "addr:housenumber": "70", "addr:street": "Via Giuseppe Manno", "indoor_seating": "no", "outdoor_seating": "no", "addr:postcode": null, "takeaway": "only", "wheelchair": null, "check_date": "2023-09-12", "payment:cash": null, "payment:credit_cards": null, "payment:debit_cards": null, "payment:satispay": null, "phone": null, "website": null, "check_date:opening_hours": null, "opening_hours:signed": null, "addr:country": null, "opening_hours": null, "operator": null, "payment:bancomat": null, "payment:mastercard": null, "payment:visa": null, "payment:visa_electron": null, "source": null, "shop": null, "ice_cream": null, "indoor": null, "building:levels": null }, "geometry": { "type": "Point", "coordinates": [ 9.1141017, 39.2165736 ] } },
{ "type": "Feature", "properties": { "element": "node", "id": 12441598583, "amenity": "ice_cream", "cuisine": null, "name": "I Fenu", "addr:city": null, "addr:housenumber": null, "addr:street": null, "indoor_seating": null, "outdoor_seating": null, "addr:postcode": null, "takeaway": "yes", "wheelchair": null, "check_date": null, "payment:cash": null, "payment:credit_cards": null, "payment:debit_cards": null, "payment:satispay": null, "phone": null, "website": null, "check_date:opening_hours": null, "opening_hours:signed": null, "addr:country": null, "opening_hours": null, "operator": null, "payment:bancomat": null, "payment:mastercard": null, "payment:visa": null, "payment:visa_electron": null, "source": null, "shop": "pastry", "ice_cream": null, "indoor": null, "building:levels": null }, "geometry": { "type": "Point", "coordinates": [ 9.1226334, 39.2201715 ] } },
{ "type": "Feature", "properties": { "element": "node", "id": 12478378681, "amenity": "ice_cream", "cuisine": null, "name": "Ice Stop", "addr:city": null, "addr:housenumber": null, "addr:street": null, "indoor_seating": null, "outdoor_seating": null, "addr:postcode": null, "takeaway": null, "wheelchair": null, "check_date": null, "payment:cash": null, "payment:credit_cards": null, "payment:debit_cards": null, "payment:satispay": null, "phone": null, "website": null, "check_date:opening_hours": null, "opening_hours:signed": null, "addr:country": null, "opening_hours": "Mo-Fr 11:00-14:00,16:00-22:00; Tu 15:30-23:00; We off; Sa 11:00-14:00,16:00-23:00; Su 11:00-14:00,16:00-22:30", "operator": null, "payment:bancomat": null, "payment:mastercard": null, "payment:visa": null, "payment:visa_electron": null, "source": null, "shop": null, "ice_cream": "artisanal", "indoor": "yes", "building:levels": null }, "geometry": { "type": "Point", "coordinates": [ 9.1251715, 39.2200467 ] } },
{ "type": "Feature", "properties": { "element": "node", "id": 13083862601, "amenity": "ice_cream", "cuisine": null, "name": "Cremoso Dolci Emozioni", "addr:city": null, "addr:housenumber": "1", "addr:street": "Piazza Martiri d'Italia", "indoor_seating": null, "outdoor_seating": null, "addr:postcode": "09124", "takeaway": null, "wheelchair": null, "check_date": null, "payment:cash": null, "payment:credit_cards": null, "payment:debit_cards": null, "payment:satispay": null, "phone": null, "website": null, "check_date:opening_hours": null, "opening_hours:signed": null, "addr:country": null, "opening_hours": null, "operator": null, "payment:bancomat": null, "payment:mastercard": null, "payment:visa": null, "payment:visa_electron": null, "source": null, "shop": null, "ice_cream": null, "indoor": null, "building:levels": null }, "geometry": { "type": "Point", "coordinates": [ 9.1162011, 39.2155021 ] } },
{ "type": "Feature", "properties": { "element": "way", "id": 410331639, "amenity": "ice_cream", "cuisine": null, "name": "Bobocono Beach", "addr:city": null, "addr:housenumber": null, "addr:street": null, "indoor_seating": null, "outdoor_seating": null, "addr:postcode": null, "takeaway": null, "wheelchair": "yes", "check_date": null, "payment:cash": null, "payment:credit_cards": null, "payment:debit_cards": null, "payment:satispay": null, "phone": null, "website": null, "check_date:opening_hours": null, "opening_hours:signed": null, "addr:country": null, "opening_hours": null, "operator": null, "payment:bancomat": null, "payment:mastercard": null, "payment:visa": null, "payment:visa_electron": null, "source": null, "shop": null, "ice_cream": null, "indoor": null, "building:levels": "1" }, "geometry": { "type": "Polygon", "coordinates": [ [ [ 9.1632828, 39.2042164 ], [ 9.1633505, 39.2041823 ], [ 9.1633236, 39.2041415 ], [ 9.1632432, 39.2041797 ], [ 9.1632732, 39.2042216 ], [ 9.1632828, 39.2042164 ] ] ] } }
]
}
