{
"type": "FeatureCollection",
"name": "amenity_pub",
"crs": { "type": "name", "properties": { "name": "urn:ogc:def:crs:OGC:1.3:CRS84" } },
"features": [
{ "type": "Feature", "properties": { "element": "node", "id": 2168129426, "addr:housename": "Mediateca del Mediterraneo", "addr:housenumber": "164", "addr:postcode": "09123", "addr:street": "Via Goffredo Mameli", "amenity": "pub", "bar": "yes", "cafe": "yes", "cuisine": "pizza;italian;steak_house", "internet_access": "wlan", "name": "Sette Vizi", "operator": "Sette Vizi s.r.l.", "outdoor_seating": "yes", "short_name": "7vizi", "smoking": "outside", "source": "survey", "wheelchair": "limited", "addr:city": null, "toilets:wheelchair": null, "brewery": null, "description": null, "opening_hours": null, "food": null, "fixme": null, "club": null, "sport": null, "check_date": null, "check_date:opening_hours": null, "indoor_seating": null, "building": null, "microbrewery": null }, "geometry": { "type": "Point", "coordinates": [ 9.1046501, 39.2216582 ] } },
{ "type": "Feature", "properties": { "element": "node", "id": 2455186561, "addr:housename": null, "addr:housenumber": "9", "addr:postcode": null, "addr:street": "Via Santa Margherita", "amenity": "pub", "bar": null, "cafe": null, "cuisine": null, "internet_access": null, "name": "Birra e dintorni", "operator": null, "outdoor_seating": null, "short_name": null, "smoking": null, "source": null, "wheelchair": null, "addr:city": "Cagliari", "toilets:wheelchair": null, "brewery": null, "description": null, "opening_hours": null, "food": null, "fixme": null, "club": null, "sport": null, "check_date": null, "check_date:opening_hours": null, "indoor_seating": null, "building": null, "microbrewery": null }, "geometry": { "type": "Point", "coordinates": [ 9.1137459, 39.2183169 ] } },
{ "type": "Feature", "properties": { "element": "node", "id": 2468562412, "addr:housename": "Via Portoscalas", "addr:housenumber": "69", "addr:postcode": "09123", "addr:street": "Via Portoscalas", "amenity": "pub", "bar": null, "cafe": null, "cuisine": "sandwich", "internet_access": null, "name": "Birroteca Al Merlo Parlante", "operator": null, "outdoor_seating": null, "short_name": null, "smoking": null, "source": null, "wheelchair": "no", "addr:city": "Cagliari", "toilets:wheelchair": "no", "brewery": null, "description": null, "opening_hours": null, "food": null, "fixme": null, "club": null, "sport": null, "check_date": null, "check_date:opening_hours": null, "indoor_seating": null, "building": null, "microbrewery": null }, "geometry": { "type": "Point", "coordinates": [ 9.1104594, 39.2186071 ] } },
{ "type": "Feature", "properties": { "element": "node", "id": 2524303014, "addr:housename": null, "addr:housenumber": "49", "addr:postcode": null, "addr:street": "Via Giovanni Maria Angioy", "amenity": "pub", "bar": null, "cafe": null, "cuisine": null, "internet_access": null, "name": "Beer Garden", "operator": null, "outdoor_seating": null, "short_name": null, "smoking": null, "source": null, "wheelchair": null, "addr:city": "Cagliari", "toilets:wheelchair": null, "brewery": null, "description": null, "opening_hours": null, "food": null, "fixme": null, "club": null, "sport": null, "check_date": null, "check_date:opening_hours": null, "indoor_seating": null, "building": null, "microbrewery": null }, "geometry": { "type": "Point", "coordinates": [ 9.1117234, 39.2165229 ] } },
{ "type": "Feature", "properties": { "element": "node", "id": 2554213161, "addr:housename": null, "addr:housenumber": "7", "addr:postcode": null, "addr:street": "Via Caprera", "amenity": "pub", "bar": null, "cafe": null, "cuisine": null, "internet_access": null, "name": "Donegal", "operator": null, "outdoor_seating": null, "short_name": null, "smoking": null, "source": null, "wheelchair": null, "addr:city": "Cagliari", "toilets:wheelchair": null, "brewery": "Guinness", "description": null, "opening_hours": null, "food": null, "fixme": null, "club": null, "sport": null, "check_date": null, "check_date:opening_hours": null, "indoor_seating": null, "building": null, "microbrewery": null }, "geometry": { "type": "Point", "coordinates": [ 9.1078906, 39.2182779 ] } },
{ "type": "Feature", "properties": { "element": "node", "id": 2904559330, "addr:housename": null, "addr:housenumber": "3", "addr:postcode": "09124", "addr:street": "Vico Vittorio Emanuele II", "amenity": "pub", "bar": null, "cafe": null, "cuisine": null, "internet_access": null, "name": "Spillaus", "operator": null, "outdoor_seating": null, "short_name": null, "smoking": null, "source": null, "wheelchair": null, "addr:city": "Cagliari", "toilets:wheelchair": null, "brewery": null, "description": "paninoteca_birreria_fai_da_te", "opening_hours": "20:00 - 03:00", "food": null, "fixme": null, "club": null, "sport": null, "check_date": null, "check_date:opening_hours": null, "indoor_seating": null, "building": null, "microbrewery": null }, "geometry": { "type": "Point", "coordinates": [ 9.1115402, 39.2182706 ] } },
{ "type": "Feature", "properties": { "element": "node", "id": 3093280828, "addr:housename": null, "addr:housenumber": null, "addr:postcode": null, "addr:street": null, "amenity": "pub", "bar": null, "cafe": null, "cuisine": null, "internet_access": null, "name": "Il Vespaio", "operator": null, "outdoor_seating": "yes", "short_name": null, "smoking": null, "source": null, "wheelchair": "limited", "addr:city": null, "toilets:wheelchair": null, "brewery": null, "description": null, "opening_hours": null, "food": null, "fixme": null, "club": null, "sport": null, "check_date": null, "check_date:opening_hours": null, "indoor_seating": null, "building": null, "microbrewery": null }, "geometry": { "type": "Point", "coordinates": [ 9.1131555, 39.2157117 ] } },
{ "type": "Feature", "properties": { "element": "node", "id": 4100055957, "addr:housename": null, "addr:housenumber": null, "addr:postcode": null, "addr:street": null, "amenity": "pub", "bar": null, "cafe": null, "cuisine": null, "internet_access": null, "name": "Biccus RistoBar", "operator": null, "outdoor_seating": null, "short_name": null, "smoking": null, "source": null, "wheelchair": null, "addr:city": null, "toilets:wheelchair": null, "brewery": null, "description": null, "opening_hours": null, "food": "yes", "fixme": null, "club": null, "sport": null, "check_date": null, "check_date:opening_hours": null, "indoor_seating": null, "building": null, "microbrewery": null }, "geometry": { "type": "Point", "coordinates": [ 9.1197352, 39.2183732 ] } },
{ "type": "Feature", "properties": { "element": "node", "id": 4229130419, "addr:housename": null, "addr:housenumber": "35", "addr:postcode": null, "addr:street": "Via Giorgio Asproni", "amenity": "pub", "bar": null, "cafe": null, "cuisine": null, "internet_access": null, "name": "Dorian Gray", "operator": null, "outdoor_seating": null, "short_name": null, "smoking": "outside", "source": "Regione Autonoma della Sardegna (www.sardegnageoportale.it)", "wheelchair": null, "addr:city": "Cagliari", "toilets:wheelchair": null, "brewery": null, "description": null, "opening_hours": null, "food": null, "fixme": null, "club": null, "sport": null, "check_date": null, "check_date:opening_hours": null, "indoor_seating": null, "building": null, "microbrewery": null }, "geometry": { "type": "Point", "coordinates": [ 9.1057409, 39.2196682 ] } },
{ "type": "Feature", "properties": { "element": "node", "id": 4229512816, "addr:housename": null, "addr:housenumber": "400e", "addr:postcode": null, "addr:street": "Via San Giovanni", "amenity": "pub", "bar": null, "cafe": null, "cuisine": null, "internet_access": null, "name": "Rex Fox", "operator": null, "outdoor_seating": null, "short_name": null, "smoking": null, "source": "Regione Autonoma della Sardegna (www.sardegnageoportale.it)", "wheelchair": null, "addr:city": "Cagliari", "toilets:wheelchair": null, "brewery": null, "description": null, "opening_hours": null, "food": null, "fixme": null, "club": null, "sport": null, "check_date": null, "check_date:opening_hours": null, "indoor_seating": null, "building": null, "microbrewery": null }, "geometry": { "type": "Point", "coordinates": [ 9.1197846, 39.2249988 ] } },
{ "type": "Feature", "properties": { "element": "node", "id": 5800724254, "addr:housename": null, "addr:housenumber": null, "addr:postcode": null, "addr:street": "Via Sassari", "amenity": "pub", "bar": null, "cafe": null, "cuisine": null, "internet_access": null, "name": "Crazy Pub", "operator": null, "outdoor_seating": null, "short_name": null, "smoking": null, "source": null, "wheelchair": "no", "addr:city": "Cagliari", "toilets:wheelchair": null, "brewery": null, "description": null, "opening_hours": null, "food": null, "fixme": "verify position", "club": null, "sport": null, "check_date": null, "check_date:opening_hours": null, "indoor_seating": null, "building": null, "microbrewery": null }, "geometry": { "type": "Point", "coordinates": [ 9.1086, 39.21498 ] } },
{ "type": "Feature", "properties": { "element": "node", "id": 9198818893, "addr:housename": null, "addr:housenumber": "21", "addr:postcode": "09134", "addr:street": "Via Calamattia", "amenity": "pub", "bar": null, "cafe": null, "cuisine": null, "internet_access": null, "name": "040 Zeroquaranta", "operator": null, "outdoor_seating": null, "short_name": null, "smoking": null, "source": null, "wheelchair": null, "addr:city": "Cagliari", "toilets:wheelchair": null, "brewery": null, "description": null, "opening_hours": null, "food": null, "fixme": null, "club": null, "sport": null, "check_date": null, "check_date:opening_hours": null, "indoor_seating": null, "building": null, "microbrewery": null }, "geometry": { "type": "Point", "coordinates": [ 9.1211012, 39.2399989 ] } },
{ "type": "Feature", "properties": { "element": "node", "id": 9256910137, "addr:housename": null, "addr:housenumber": null, "addr:postcode": null, "addr:street": null, "amenity": "pub", "bar": null, "cafe": null, "cuisine": null, "internet_access": null, "name": "Dubai Planet", "operator": null, "outdoor_seating": null, "short_name": null, "smoking": null, "source": null, "wheelchair": null, "addr:city": null, "toilets:wheelchair": null, "brewery": null, "description": null, "opening_hours": null, "food": null, "fixme": null, "club": null, "sport": null, "check_date": null, "check_date:opening_hours": null, "indoor_seating": null, "building": null, "microbrewery": null }, "geometry": { "type": "Point", "coordinates": [ 9.0956559, 39.2438163 ] } },
{ "type": "Feature", "properties": { "element": "node", "id": 9544855093, "addr:housename": null, "addr:housenumber": null, "addr:postcode": null, "addr:street": null, "amenity": "pub", "bar": null, "cafe": null, "cuisine": null, "internet_access": null, "name": "A.S.D. Club del Biliardo", "operator": null, "outdoor_seating": null, "short_name": null, "smoking": null, "source": null, "wheelchair": null, "addr:city": null, "toilets:wheelchair": null, "brewery": null, "description": null, "opening_hours": null, "food": null, "fixme": null, "club": "yes", "sport": "billiards", "check_date": null, "check_date:opening_hours": null, "indoor_seating": null, "building": null, "microbrewery": null }, "geometry": { "type": "Point", "coordinates": [ 9.1404686, 39.2384015 ] } },
{ "type": "Feature", "properties": { "element": "node", "id": 9888509672, "addr:housename": null, "addr:housenumber": "145a145", "addr:postcode": null, "addr:street": "Via Giardini", "amenity": "pub", "bar": null, "cafe": null, "cuisine": null, "internet_access": null, "name": "L'Opoz", "operator": null, "outdoor_seating": null, "short_name": null, "smoking": null, "source": null, "wheelchair": null, "addr:city": null, "toilets:wheelchair": null, "brewery": null, "description": null, "opening_hours": null, "food": null, "fixme": null, "club": null, "sport": null, "check_date": null, "check_date:opening_hours": null, "indoor_seating": null, "building": null, "microbrewery": null }, "geometry": { "type": "Point", "coordinates": [ 9.1192789, 39.2250824 ] } },
{ "type": "Feature", "properties": { "element": "node", "id": 11181983444, "addr:housename": null, "addr:housenumber": null, "addr:postcode": null, "addr:street": "Corso Vittorio Emanuele II", "amenity": "pub", "bar": null, "cafe": null, "cuisine": null, "internet_access": null, "name": "Eight's", "operator": null, "outdoor_seating": "no", "short_name": null, "smoking": null, "source": null, "wheelchair": null, "addr:city": "Cagliari", "toilets:wheelchair": null, "brewery": null, "description": null, "opening_hours": "Mo-Su 12:00-24:00", "food": null, "fixme": null, "club": null, "sport": null, "check_date": "2025-05-18", "check_date:opening_hours": "2025-05-18", "indoor_seating": "yes", "building": null, "microbrewery": null }, "geometry": { "type": "Point", "coordinates": [ 9.1101553, 39.2187348 ] } },
{ "type": "Feature", "properties": { "element": "way", "id": 277191122, "addr:housename": null, "addr:housenumber": null, "addr:postcode": null, "addr:street": null, "amenity": "pub", "bar": null, "cafe": null, "cuisine": null, "internet_access": null, "name": "Birrificio di Cagliari", "operator": null, "outdoor_seating": null, "short_name": null, "smoking": null, "source": null, "wheelchair": null, "addr:city": null, "toilets:wheelchair": null, "brewery": null, "description": null, "opening_hours": null, "food": null, "fixme": null, "club": null, "sport": null, "check_date": null, "check_date:opening_hours": null, "indoor_seating": null, "building": "yes", "microbrewery": "yes" }, "geometry": { "type": "Polygon", "coordinates": [ [ [ 9.1422557, 39.2391448 ], [ 9.1419604, 39.2396357 ], [ 9.1423842, 39.2397883 ], [ 9.1426784, 39.2392965 ], [ 9.1422557, 39.2391448 ] ] ] } }
]
}
