{
"type": "FeatureCollection",
"name": "amenity_bar",
"crs": { "type": "name", "properties": { "name": "urn:ogc:def:crs:OGC:1.3:CRS84" } },
"features": [
{ "type": "Feature", "properties": { "element": "node", "id": 12898139275, "addr:city": "Cagliari", "addr:housenumber": "8", "addr:postcode": "09121", "addr:street": "Via Mandrolisai", "amenity": "bar", "name": "Il Bar", "outdoor_seating": null, "source": null, "building": null, "cuisine": null, "wheelchair": null, "opening_hours": null }, "geometry": { "type": "Point", "coordinates": [ 9.1014448, 39.2391218 ] } },
{ "type": "Feature", "properties": { "element": "way", "id": 277188121, "addr:city": "Casteddu/Cagliari", "addr:housenumber": null, "addr:postcode": null, "addr:street": "Viale Poetto", "amenity": "bar", "name": "Oasi cafè", "outdoor_seating": null, "source": null, "building": "yes", "cuisine": "italian", "wheelchair": "yes", "opening_hours": null }, "geometry": { "type": "Polygon", "coordinates": [ [ [ 9.1635914, 39.2038017 ], [ 9.163488, 39.2036626 ], [ 9.1633113, 39.2037415 ], [ 9.1634148, 39.2038806 ], [ 9.1635914, 39.2038017 ] ] ] } },
{ "type": "Feature", "properties": { "element": "way", "id": 277189547, "addr:city": "Cagliari", "addr:housenumber": "4", "addr:postcode": null, "addr:street": "Viale Buoncammino", "amenity": "bar", "name": null, "outdoor_seating": null, "source": "Regione Autonoma della Sardegna (www.sardegnageoportale.it)", "building": "yes", "cuisine": null, "wheelchair": null, "opening_hours": "closed" }, "geometry": { "type": "Polygon", "coordinates": [ [ [ 9.1151863, 39.2236628 ], [ 9.1151061, 39.2236347 ], [ 9.1150769, 39.2236848 ], [ 9.115157, 39.2237129 ], [ 9.1151863, 39.2236628 ] ] ] } },
{ "type": "Feature", "properties": { "element": "way", "id": 277189649, "addr:city": null, "addr:housenumber": null, "addr:postcode": null, "addr:street": null, "amenity": "bar", "name": "Twist Beach Club", "outdoor_seating": null, "source": null, "building": "yes", "cuisine": null, "wheelchair": null, "opening_hours": null }, "geometry": { "type": "Polygon", "coordinates": [ [ [ 9.1658138, 39.2063741 ], [ 9.1656672, 39.2062521 ], [ 9.1654988, 39.2063535 ], [ 9.16564, 39.2064844 ], [ 9.1658138, 39.2063741 ] ] ] } },
{ "type": "Feature", "properties": { "element": "way", "id": 277190855, "addr:city": null, "addr:housenumber": null, "addr:postcode": null, "addr:street": null, "amenity": "bar", "name": "Im Miraggio", "outdoor_seating": null, "source": null, "building": "yes", "cuisine": null, "wheelchair": null, "opening_hours": null }, "geometry": { "type": "Polygon", "coordinates": [ [ [ 9.1682118, 39.2084739 ], [ 9.1680737, 39.2083599 ], [ 9.1679269, 39.2084667 ], [ 9.1680649, 39.2085807 ], [ 9.1682118, 39.2084739 ] ] ] } },
{ "type": "Feature", "properties": { "element": "way", "id": 699446482, "addr:city": null, "addr:housenumber": null, "addr:postcode": null, "addr:street": null, "amenity": "bar", "name": "Malibù", "outdoor_seating": null, "source": null, "building": "yes", "cuisine": null, "wheelchair": null, "opening_hours": null }, "geometry": { "type": "Polygon", "coordinates": [ [ [ 9.1631555, 39.2032474 ], [ 9.1629859, 39.2033243 ], [ 9.1628827, 39.2031877 ], [ 9.1630522, 39.2031107 ], [ 9.1631555, 39.2032474 ] ] ] } },
{ "type": "Feature", "properties": { "element": "way", "id": 699446483, "addr:city": null, "addr:housenumber": null, "addr:postcode": null, "addr:street": null, "amenity": "bar", "name": "Lanterna Rossa", "outdoor_seating": null, "source": null, "building": "yes", "cuisine": null, "wheelchair": null, "opening_hours": null }, "geometry": { "type": "Polygon", "coordinates": [ [ [ 9.1649497, 39.2055769 ], [ 9.1647816, 39.2056783 ], [ 9.164652, 39.2055453 ], [ 9.1648224, 39.2054467 ], [ 9.1649497, 39.2055769 ] ] ] } },
{ "type": "Feature", "properties": { "element": "way", "id": 699446484, "addr:city": null, "addr:housenumber": null, "addr:postcode": null, "addr:street": null, "amenity": "bar", "name": "Palm Beach", "outdoor_seating": null, "source": null, "building": "yes", "cuisine": null, "wheelchair": null, "opening_hours": null }, "geometry": { "type": "Polygon", "coordinates": [ [ [ 9.1650758, 39.2059614 ], [ 9.1652089, 39.206079 ], [ 9.165391, 39.2059614 ], [ 9.1652544, 39.2058348 ], [ 9.1650758, 39.2059614 ] ] ] } },
{ "type": "Feature", "properties": { "element": "way", "id": 699447155, "addr:city": null, "addr:housenumber": null, "addr:postcode": null, "addr:street": null, "amenity": "bar", "name": "Il Nilo", "outdoor_seating": null, "source": null, "building": "yes", "cuisine": null, "wheelchair": "yes", "opening_hours": null }, "geometry": { "type": "Polygon", "coordinates": [ [ [ 9.1685956, 39.209002 ], [ 9.1687459, 39.2091244 ], [ 9.1688815, 39.2090244 ], [ 9.1687394, 39.2089088 ], [ 9.1686582, 39.2089688 ], [ 9.1686449, 39.2089656 ], [ 9.1685956, 39.209002 ] ] ] } },
{ "type": "Feature", "properties": { "element": "way", "id": 709608731, "addr:city": null, "addr:housenumber": null, "addr:postcode": null, "addr:street": null, "amenity": "bar", "name": "Corto Maltese", "outdoor_seating": "yes", "source": null, "building": "yes", "cuisine": null, "wheelchair": null, "opening_hours": null }, "geometry": { "type": "Polygon", "coordinates": [ [ [ 9.1699206, 39.2100822 ], [ 9.1700288, 39.2100026 ], [ 9.1699028, 39.2098999 ], [ 9.1698453, 39.2099422 ], [ 9.1698196, 39.2099212 ], [ 9.1697689, 39.2099586 ], [ 9.1699206, 39.2100822 ] ] ] } },
{ "type": "Feature", "properties": { "element": "way", "id": 709608732, "addr:city": null, "addr:housenumber": null, "addr:postcode": null, "addr:street": null, "amenity": "bar", "name": "Il fico d'India", "outdoor_seating": "yes", "source": null, "building": "yes", "cuisine": null, "wheelchair": null, "opening_hours": null }, "geometry": { "type": "Polygon", "coordinates": [ [ [ 9.1734278, 39.2126799 ], [ 9.1735058, 39.2125943 ], [ 9.1733612, 39.2125153 ], [ 9.1732833, 39.212601 ], [ 9.1734278, 39.2126799 ] ] ] } },
{ "type": "Feature", "properties": { "element": "way", "id": 709608735, "addr:city": null, "addr:housenumber": null, "addr:postcode": null, "addr:street": null, "amenity": "bar", "name": "L'Iguana", "outdoor_seating": null, "source": null, "building": "yes", "cuisine": null, "wheelchair": null, "opening_hours": null }, "geometry": { "type": "Polygon", "coordinates": [ [ [ 9.1749929, 39.213547 ], [ 9.1750764, 39.2134558 ], [ 9.1749361, 39.2133787 ], [ 9.1748526, 39.2134699 ], [ 9.1749929, 39.213547 ] ] ] } },
{ "type": "Feature", "properties": { "element": "way", "id": 709608736, "addr:city": null, "addr:housenumber": null, "addr:postcode": null, "addr:street": null, "amenity": "bar", "name": "Aramacao", "outdoor_seating": null, "source": null, "building": "yes", "cuisine": null, "wheelchair": null, "opening_hours": null }, "geometry": { "type": "Polygon", "coordinates": [ [ [ 9.1754888, 39.213827 ], [ 9.1755686, 39.2137404 ], [ 9.1757108, 39.213819 ], [ 9.1756309, 39.2139056 ], [ 9.1754888, 39.213827 ] ] ] } },
{ "type": "Feature", "properties": { "element": "way", "id": 709608737, "addr:city": null, "addr:housenumber": null, "addr:postcode": null, "addr:street": null, "amenity": "bar", "name": "La Dolce Vita", "outdoor_seating": null, "source": null, "building": "yes", "cuisine": null, "wheelchair": null, "opening_hours": null }, "geometry": { "type": "Polygon", "coordinates": [ [ [ 9.1741633, 39.2130926 ], [ 9.1742512, 39.2130006 ], [ 9.1743951, 39.2130831 ], [ 9.1743072, 39.2131751 ], [ 9.1741633, 39.2130926 ] ] ] } },
{ "type": "Feature", "properties": { "element": "way", "id": 709608738, "addr:city": null, "addr:housenumber": null, "addr:postcode": null, "addr:street": null, "amenity": "bar", "name": "Chiosco Capolinea", "outdoor_seating": null, "source": null, "building": "yes", "cuisine": null, "wheelchair": null, "opening_hours": null }, "geometry": { "type": "Polygon", "coordinates": [ [ [ 9.1772208, 39.2147686 ], [ 9.1773392, 39.2146415 ], [ 9.1771875, 39.2145566 ], [ 9.177069, 39.2146836 ], [ 9.1772208, 39.2147686 ] ] ] } }
]
}
