{
"type": "FeatureCollection",
"name": "healthcare_True",
"crs": { "type": "name", "properties": { "name": "urn:ogc:def:crs:OGC:1.3:CRS84" } },
"features": [
{ "type": "Feature", "properties": { "element": "node", "id": 265669575, "addr:city": "Cagliari", "addr:housenumber": "203", "addr:postcode": "09122", "addr:street": "Viale Sant'Avendrace", "amenity": "dentist", "healthcare": "dentist", "name": "Dr. Mauri Sergio", "opening_hours": "09:00-13:00,15:30-19:30", "dispensing": null, "wheelchair": null, "name:it": null, "source": null, "email": null, "drive_through": null, "payment:bancomat": null, "payment:cash": null, "payment:mastercard": null, "payment:visa": null, "payment:visa_debit": null, "phone": null, "website": null, "description": null, "healthcare:speciality": null, "operator": null, "operator:type": null, "check_date": null, "emergency": null, "toilets:wheelchair": null, "check_date:opening_hours": null, "opening_hours:signed": null, "start_date": null, "contact:email": null, "contact:phone": null, "note": null, "alt_name": null, "military": null, "wikidata": null, "wikimedia_commons": null, "wikipedia": null, "building": null, "building:levels": null, "height": null, "disused": null, "disused:amenity": null }, "geometry": { "type": "Point", "coordinates": [ 9.0985575, 39.2310018 ] } },
{ "type": "Feature", "properties": { "element": "node", "id": 4071708527, "addr:city": null, "addr:housenumber": null, "addr:postcode": null, "addr:street": null, "amenity": "hospital", "healthcare": "hospital", "name": "Pronto Soccorso", "opening_hours": null, "dispensing": null, "wheelchair": "yes", "name:it": "Pronto Soccorso San Giovanni di Dio", "source": null, "email": null, "drive_through": null, "payment:bancomat": null, "payment:cash": null, "payment:mastercard": null, "payment:visa": null, "payment:visa_debit": null, "phone": null, "website": null, "description": null, "healthcare:speciality": null, "operator": null, "operator:type": null, "check_date": null, "emergency": null, "toilets:wheelchair": null, "check_date:opening_hours": null, "opening_hours:signed": null, "start_date": null, "contact:email": null, "contact:phone": null, "note": null, "alt_name": null, "military": null, "wikidata": null, "wikimedia_commons": null, "wikipedia": null, "building": null, "building:levels": null, "height": null, "disused": null, "disused:amenity": null }, "geometry": { "type": "Point", "coordinates": [ 9.1126439, 39.2216396 ] } },
{ "type": "Feature", "properties": { "element": "node", "id": 4228895009, "addr:city": "Cagliari", "addr:housenumber": "1", "addr:postcode": "09129", "addr:street": "Piazza della Repubblica", "amenity": "pharmacy", "healthcare": "pharmacy", "name": "Farmacia Solinas", "opening_hours": null, "dispensing": null, "wheelchair": "yes", "name:it": null, "source": "Regione Autonoma della Sardegna (www.sardegnageoportale.it)", "email": null, "drive_through": null, "payment:bancomat": null, "payment:cash": null, "payment:mastercard": null, "payment:visa": null, "payment:visa_debit": null, "phone": null, "website": null, "description": null, "healthcare:speciality": null, "operator": null, "operator:type": null, "check_date": null, "emergency": null, "toilets:wheelchair": null, "check_date:opening_hours": null, "opening_hours:signed": null, "start_date": null, "contact:email": null, "contact:phone": null, "note": null, "alt_name": null, "military": null, "wikidata": null, "wikimedia_commons": null, "wikipedia": null, "building": null, "building:levels": null, "height": null, "disused": null, "disused:amenity": null }, "geometry": { "type": "Point", "coordinates": [ 9.1251833, 39.2169389 ] } },
{ "type": "Feature", "properties": { "element": "node", "id": 4228930388, "addr:city": "Cagliari", "addr:housenumber": "12a", "addr:postcode": "09127", "addr:street": "Via Liguria", "amenity": "dentist", "healthcare": "dentist", "name": "dentistacagliari.it", "opening_hours": "Mo-Fr 09:00-17:00", "dispensing": null, "wheelchair": null, "name:it": null, "source": "Regione Autonoma della Sardegna (www.sardegnageoportale.it)", "email": "info@studiocaruso.it", "drive_through": null, "payment:bancomat": null, "payment:cash": null, "payment:mastercard": null, "payment:visa": null, "payment:visa_debit": null, "phone": null, "website": null, "description": null, "healthcare:speciality": null, "operator": null, "operator:type": null, "check_date": null, "emergency": null, "toilets:wheelchair": null, "check_date:opening_hours": null, "opening_hours:signed": null, "start_date": null, "contact:email": null, "contact:phone": null, "note": null, "alt_name": null, "military": null, "wikidata": null, "wikimedia_commons": null, "wikipedia": null, "building": null, "building:levels": null, "height": null, "disused": null, "disused:amenity": null }, "geometry": { "type": "Point", "coordinates": [ 9.1177938, 39.228229 ] } },
{ "type": "Feature", "properties": { "element": "node", "id": 4229141410, "addr:city": "Cagliari", "addr:housenumber": "39", "addr:postcode": "09124", "addr:street": "Largo Carlo Felice di Savoia", "amenity": "pharmacy", "healthcare": "pharmacy", "name": "Parafarmacia Piga", "opening_hours": null, "dispensing": null, "wheelchair": null, "name:it": null, "source": "Regione Autonoma della Sardegna (www.sardegnageoportale.it)", "email": null, "drive_through": "no", "payment:bancomat": "yes", "payment:cash": "yes", "payment:mastercard": "yes", "payment:visa": "yes", "payment:visa_debit": "yes", "phone": "+39070667625", "website": "https://parafarmaciapiga.it/", "description": null, "healthcare:speciality": null, "operator": null, "operator:type": null, "check_date": null, "emergency": null, "toilets:wheelchair": null, "check_date:opening_hours": null, "opening_hours:signed": null, "start_date": null, "contact:email": null, "contact:phone": null, "note": null, "alt_name": null, "military": null, "wikidata": null, "wikimedia_commons": null, "wikipedia": null, "building": null, "building:levels": null, "height": null, "disused": null, "disused:amenity": null }, "geometry": { "type": "Point", "coordinates": [ 9.1134059, 39.216857 ] } },
{ "type": "Feature", "properties": { "element": "node", "id": 4229580804, "addr:city": "Cagliari", "addr:housenumber": "50", "addr:postcode": null, "addr:street": "Via Dante Alighieri", "amenity": "pharmacy", "healthcare": "pharmacy", "name": "Piga", "opening_hours": null, "dispensing": "no", "wheelchair": "no", "name:it": null, "source": null, "email": null, "drive_through": null, "payment:bancomat": null, "payment:cash": null, "payment:mastercard": null, "payment:visa": null, "payment:visa_debit": null, "phone": null, "website": null, "description": null, "healthcare:speciality": null, "operator": null, "operator:type": null, "check_date": null, "emergency": null, "toilets:wheelchair": null, "check_date:opening_hours": null, "opening_hours:signed": null, "start_date": null, "contact:email": null, "contact:phone": null, "note": null, "alt_name": null, "military": null, "wikidata": null, "wikimedia_commons": null, "wikipedia": null, "building": null, "building:levels": null, "height": null, "disused": null, "disused:amenity": null }, "geometry": { "type": "Point", "coordinates": [ 9.1247358, 39.2168276 ] } },
{ "type": "Feature", "properties": { "element": "node", "id": 4229623377, "addr:city": "Cagliari", "addr:housenumber": "7a", "addr:postcode": null, "addr:street": "Via Messina", "amenity": "clinic", "healthcare": "clinic", "name": "Otorinolaringoiatra e Medico Estetico. Dott. Manca Thomas", "opening_hours": "Tu,Th 16:00-20:00", "dispensing": null, "wheelchair": "yes", "name:it": null, "source": "Regione Autonoma della Sardegna (www.sardegnageoportale.it)", "email": null, "drive_through": null, "payment:bancomat": null, "payment:cash": null, "payment:mastercard": null, "payment:visa": null, "payment:visa_debit": null, "phone": "+39 347 171 1176", "website": "https://www.otorinocagliari.it/", "description": "medico estetico, otorinolaringoiatra", "healthcare:speciality": "otolaryngology;plastic_surgery", "operator": "Dottor Manca Thomas", "operator:type": "private", "check_date": null, "emergency": null, "toilets:wheelchair": null, "check_date:opening_hours": null, "opening_hours:signed": null, "start_date": null, "contact:email": null, "contact:phone": null, "note": null, "alt_name": null, "military": null, "wikidata": null, "wikimedia_commons": null, "wikipedia": null, "building": null, "building:levels": null, "height": null, "disused": null, "disused:amenity": null }, "geometry": { "type": "Point", "coordinates": [ 9.1317763, 39.206864 ] } },
{ "type": "Feature", "properties": { "element": "node", "id": 4278074532, "addr:city": null, "addr:housenumber": null, "addr:postcode": null, "addr:street": null, "amenity": "pharmacy", "healthcare": "pharmacy", "name": "Parafarmacia", "opening_hours": null, "dispensing": "no", "wheelchair": null, "name:it": null, "source": null, "email": null, "drive_through": null, "payment:bancomat": null, "payment:cash": null, "payment:mastercard": null, "payment:visa": null, "payment:visa_debit": null, "phone": null, "website": null, "description": null, "healthcare:speciality": null, "operator": null, "operator:type": null, "check_date": null, "emergency": null, "toilets:wheelchair": null, "check_date:opening_hours": null, "opening_hours:signed": null, "start_date": null, "contact:email": null, "contact:phone": null, "note": null, "alt_name": null, "military": null, "wikidata": null, "wikimedia_commons": null, "wikipedia": null, "building": null, "building:levels": null, "height": null, "disused": null, "disused:amenity": null }, "geometry": { "type": "Point", "coordinates": [ 9.1115812, 39.2186169 ] } },
{ "type": "Feature", "properties": { "element": "node", "id": 5244771451, "addr:city": "Cagliari", "addr:housenumber": null, "addr:postcode": "09121", "addr:street": null, "amenity": null, "healthcare": "hospital", "name": "Pronto Soccorso Ospedale \"Santissima Trinità\"", "opening_hours": null, "dispensing": null, "wheelchair": null, "name:it": null, "source": null, "email": null, "drive_through": null, "payment:bancomat": null, "payment:cash": null, "payment:mastercard": null, "payment:visa": null, "payment:visa_debit": null, "phone": null, "website": null, "description": null, "healthcare:speciality": null, "operator": null, "operator:type": null, "check_date": "2025-02-23", "emergency": "emergency_ward_entrance", "toilets:wheelchair": null, "check_date:opening_hours": null, "opening_hours:signed": null, "start_date": null, "contact:email": null, "contact:phone": null, "note": null, "alt_name": null, "military": null, "wikidata": null, "wikimedia_commons": null, "wikipedia": null, "building": null, "building:levels": null, "height": null, "disused": null, "disused:amenity": null }, "geometry": { "type": "Point", "coordinates": [ 9.1084996, 39.2356224 ] } },
{ "type": "Feature", "properties": { "element": "node", "id": 5244774601, "addr:city": "Cagliari", "addr:housenumber": null, "addr:postcode": null, "addr:street": null, "amenity": "hospital", "healthcare": "hospital", "name": "Pronto Soccorso", "opening_hours": null, "dispensing": null, "wheelchair": "yes", "name:it": null, "source": null, "email": null, "drive_through": null, "payment:bancomat": null, "payment:cash": null, "payment:mastercard": null, "payment:visa": null, "payment:visa_debit": null, "phone": null, "website": null, "description": null, "healthcare:speciality": null, "operator": null, "operator:type": null, "check_date": null, "emergency": "yes", "toilets:wheelchair": "yes", "check_date:opening_hours": null, "opening_hours:signed": null, "start_date": null, "contact:email": null, "contact:phone": null, "note": null, "alt_name": null, "military": null, "wikidata": null, "wikimedia_commons": null, "wikipedia": null, "building": null, "building:levels": null, "height": null, "disused": null, "disused:amenity": null }, "geometry": { "type": "Point", "coordinates": [ 9.1745657, 39.213699 ] } },
{ "type": "Feature", "properties": { "element": "node", "id": 5244797274, "addr:city": "Cagliari", "addr:housenumber": null, "addr:postcode": "09121", "addr:street": null, "amenity": "hospital", "healthcare": "hospital", "name": "Pronto Soccorso", "opening_hours": null, "dispensing": null, "wheelchair": null, "name:it": null, "source": null, "email": null, "drive_through": null, "payment:bancomat": null, "payment:cash": null, "payment:mastercard": null, "payment:visa": null, "payment:visa_debit": null, "phone": null, "website": null, "description": null, "healthcare:speciality": null, "operator": null, "operator:type": null, "check_date": null, "emergency": "yes", "toilets:wheelchair": null, "check_date:opening_hours": null, "opening_hours:signed": null, "start_date": null, "contact:email": null, "contact:phone": null, "note": null, "alt_name": null, "military": null, "wikidata": null, "wikimedia_commons": null, "wikipedia": null, "building": null, "building:levels": null, "height": null, "disused": null, "disused:amenity": null }, "geometry": { "type": "Point", "coordinates": [ 9.1076515, 39.2487857 ] } },
{ "type": "Feature", "properties": { "element": "node", "id": 5249381822, "addr:city": null, "addr:housenumber": "108", "addr:postcode": "09122", "addr:street": "Via Is Maglias", "amenity": "pharmacy", "healthcare": "pharmacy", "name": "Farmacia Popolare", "opening_hours": "Sa 09:00-13:00; Mo-Fr 09:00-13:00, 16:30-20:00", "dispensing": null, "wheelchair": null, "name:it": null, "source": null, "email": null, "drive_through": null, "payment:bancomat": null, "payment:cash": null, "payment:mastercard": null, "payment:visa": null, "payment:visa_debit": null, "phone": "+390702087035", "website": null, "description": null, "healthcare:speciality": null, "operator": null, "operator:type": null, "check_date": null, "emergency": null, "toilets:wheelchair": null, "check_date:opening_hours": null, "opening_hours:signed": null, "start_date": null, "contact:email": null, "contact:phone": null, "note": null, "alt_name": null, "military": null, "wikidata": null, "wikimedia_commons": null, "wikipedia": null, "building": null, "building:levels": null, "height": null, "disused": null, "disused:amenity": null }, "geometry": { "type": "Point", "coordinates": [ 9.1023158, 39.233558 ] } },
{ "type": "Feature", "properties": { "element": "node", "id": 6153199993, "addr:city": "Cagliari", "addr:housenumber": "42", "addr:postcode": null, "addr:street": "Via Mandrolisai", "amenity": "doctors", "healthcare": "doctor", "name": null, "opening_hours": null, "dispensing": null, "wheelchair": null, "name:it": null, "source": null, "email": null, "drive_through": null, "payment:bancomat": null, "payment:cash": null, "payment:mastercard": null, "payment:visa": null, "payment:visa_debit": null, "phone": null, "website": null, "description": null, "healthcare:speciality": null, "operator": null, "operator:type": null, "check_date": null, "emergency": null, "toilets:wheelchair": null, "check_date:opening_hours": null, "opening_hours:signed": null, "start_date": null, "contact:email": null, "contact:phone": null, "note": null, "alt_name": null, "military": null, "wikidata": null, "wikimedia_commons": null, "wikipedia": null, "building": null, "building:levels": null, "height": null, "disused": null, "disused:amenity": null }, "geometry": { "type": "Point", "coordinates": [ 9.1023918, 39.240279 ] } },
{ "type": "Feature", "properties": { "element": "node", "id": 6342118408, "addr:city": "Cagliari", "addr:housenumber": "6", "addr:postcode": "09131", "addr:street": "Piazza Giudicessa Elena", "amenity": null, "healthcare": "laboratory", "name": "C.D.A. Centro Diagnostico Aresu Srl", "opening_hours": null, "dispensing": null, "wheelchair": null, "name:it": null, "source": null, "email": null, "drive_through": null, "payment:bancomat": null, "payment:cash": null, "payment:mastercard": null, "payment:visa": null, "payment:visa_debit": null, "phone": null, "website": "http://www.laboratoriocda.com/joo/it/laboratori/labquartumenu2/109-cda-orari.html", "description": null, "healthcare:speciality": null, "operator": null, "operator:type": null, "check_date": null, "emergency": null, "toilets:wheelchair": null, "check_date:opening_hours": null, "opening_hours:signed": null, "start_date": null, "contact:email": null, "contact:phone": null, "note": null, "alt_name": null, "military": null, "wikidata": null, "wikimedia_commons": null, "wikipedia": null, "building": null, "building:levels": null, "height": null, "disused": null, "disused:amenity": null }, "geometry": { "type": "Point", "coordinates": [ 9.1241535, 39.2299629 ] } },
{ "type": "Feature", "properties": { "element": "node", "id": 7220805926, "addr:city": "Cagliari", "addr:housenumber": null, "addr:postcode": "09122", "addr:street": "Viale Sant'Avendrace", "amenity": null, "healthcare": "occupational_therapist", "name": "Dott. Paolo Incani", "opening_hours": null, "dispensing": null, "wheelchair": null, "name:it": null, "source": null, "email": null, "drive_through": null, "payment:bancomat": null, "payment:cash": null, "payment:mastercard": null, "payment:visa": null, "payment:visa_debit": null, "phone": null, "website": null, "description": null, "healthcare:speciality": null, "operator": "Medico Competente Agenzia  Forestas", "operator:type": null, "check_date": null, "emergency": null, "toilets:wheelchair": null, "check_date:opening_hours": null, "opening_hours:signed": null, "start_date": null, "contact:email": null, "contact:phone": null, "note": null, "alt_name": null, "military": null, "wikidata": null, "wikimedia_commons": null, "wikipedia": null, "building": null, "building:levels": null, "height": null, "disused": null, "disused:amenity": null }, "geometry": { "type": "Point", "coordinates": [ 9.0988608, 39.2292653 ] } },
{ "type": "Feature", "properties": { "element": "node", "id": 7503480185, "addr:city": "Cagliari", "addr:housenumber": null, "addr:postcode": "09121", "addr:street": "Via Edward Jenner", "amenity": "pharmacy", "healthcare": "pharmacy", "name": "Parafarmacia Conad", "opening_hours": null, "dispensing": "no", "wheelchair": null, "name:it": null, "source": null, "email": null, "drive_through": null, "payment:bancomat": null, "payment:cash": null, "payment:mastercard": null, "payment:visa": null, "payment:visa_debit": null, "phone": null, "website": null, "description": null, "healthcare:speciality": null, "operator": "Conad", "operator:type": null, "check_date": null, "emergency": null, "toilets:wheelchair": null, "check_date:opening_hours": "2023-09-14", "opening_hours:signed": "no", "start_date": null, "contact:email": null, "contact:phone": null, "note": null, "alt_name": null, "military": null, "wikidata": null, "wikimedia_commons": null, "wikipedia": null, "building": null, "building:levels": null, "height": null, "disused": null, "disused:amenity": null }, "geometry": { "type": "Point", "coordinates": [ 9.1164854, 39.2438311 ] } },
{ "type": "Feature", "properties": { "element": "node", "id": 7503496989, "addr:city": "Cagliari", "addr:housenumber": "21", "addr:postcode": "09131", "addr:street": "Via dei Valenzani", "amenity": "pharmacy", "healthcare": "pharmacy", "name": "Parafarmacia Conad", "opening_hours": null, "dispensing": "no", "wheelchair": null, "name:it": null, "source": null, "email": null, "drive_through": null, "payment:bancomat": null, "payment:cash": null, "payment:mastercard": null, "payment:visa": null, "payment:visa_debit": null, "phone": null, "website": null, "description": null, "healthcare:speciality": null, "operator": "Conad", "operator:type": null, "check_date": null, "emergency": null, "toilets:wheelchair": null, "check_date:opening_hours": null, "opening_hours:signed": null, "start_date": null, "contact:email": null, "contact:phone": null, "note": null, "alt_name": null, "military": null, "wikidata": null, "wikimedia_commons": null, "wikipedia": null, "building": null, "building:levels": null, "height": null, "disused": null, "disused:amenity": null }, "geometry": { "type": "Point", "coordinates": [ 9.1212192, 39.2352267 ] } },
{ "type": "Feature", "properties": { "element": "node", "id": 8176076340, "addr:city": "Cagliari", "addr:housenumber": "35", "addr:postcode": "09134", "addr:street": "Via Dolianova", "amenity": "pharmacy", "healthcare": "pharmacy", "name": "Parafarmacia Conad", "opening_hours": "Mo-Su 08:30-21:00", "dispensing": "no", "wheelchair": null, "name:it": null, "source": null, "email": null, "drive_through": null, "payment:bancomat": null, "payment:cash": null, "payment:mastercard": null, "payment:visa": null, "payment:visa_debit": null, "phone": null, "website": null, "description": null, "healthcare:speciality": null, "operator": "Conad", "operator:type": null, "check_date": null, "emergency": null, "toilets:wheelchair": null, "check_date:opening_hours": null, "opening_hours:signed": null, "start_date": "2020-11-30", "contact:email": null, "contact:phone": null, "note": null, "alt_name": null, "military": null, "wikidata": null, "wikimedia_commons": null, "wikipedia": null, "building": null, "building:levels": null, "height": null, "disused": null, "disused:amenity": null }, "geometry": { "type": "Point", "coordinates": [ 9.1357494, 39.247578 ] } },
{ "type": "Feature", "properties": { "element": "node", "id": 8241311698, "addr:city": null, "addr:housenumber": null, "addr:postcode": null, "addr:street": null, "amenity": null, "healthcare": "yes", "name": "Villa Brasini Beauty Clinic", "opening_hours": null, "dispensing": null, "wheelchair": null, "name:it": null, "source": null, "email": null, "drive_through": null, "payment:bancomat": null, "payment:cash": null, "payment:mastercard": null, "payment:visa": null, "payment:visa_debit": null, "phone": null, "website": null, "description": null, "healthcare:speciality": null, "operator": null, "operator:type": null, "check_date": null, "emergency": null, "toilets:wheelchair": null, "check_date:opening_hours": null, "opening_hours:signed": null, "start_date": null, "contact:email": null, "contact:phone": null, "note": null, "alt_name": null, "military": null, "wikidata": null, "wikimedia_commons": null, "wikipedia": null, "building": null, "building:levels": null, "height": null, "disused": null, "disused:amenity": null }, "geometry": { "type": "Point", "coordinates": [ 9.1245259, 39.2134953 ] } },
{ "type": "Feature", "properties": { "element": "node", "id": 9602940099, "addr:city": null, "addr:housenumber": null, "addr:postcode": null, "addr:street": null, "amenity": null, "healthcare": "yes", "name": "Medicina & Sport", "opening_hours": null, "dispensing": null, "wheelchair": null, "name:it": null, "source": null, "email": null, "drive_through": null, "payment:bancomat": null, "payment:cash": null, "payment:mastercard": null, "payment:visa": null, "payment:visa_debit": null, "phone": null, "website": null, "description": null, "healthcare:speciality": null, "operator": null, "operator:type": null, "check_date": null, "emergency": null, "toilets:wheelchair": null, "check_date:opening_hours": null, "opening_hours:signed": null, "start_date": null, "contact:email": null, "contact:phone": null, "note": null, "alt_name": null, "military": null, "wikidata": null, "wikimedia_commons": null, "wikipedia": null, "building": null, "building:levels": null, "height": null, "disused": null, "disused:amenity": null }, "geometry": { "type": "Point", "coordinates": [ 9.107301, 39.222982 ] } },
{ "type": "Feature", "properties": { "element": "node", "id": 11146794220, "addr:city": "Cagliari", "addr:housenumber": null, "addr:postcode": null, "addr:street": "Via Roma", "amenity": "pharmacy", "healthcare": "pharmacy", "name": "Farmacia Spano", "opening_hours": null, "dispensing": "yes", "wheelchair": null, "name:it": null, "source": null, "email": null, "drive_through": "no", "payment:bancomat": null, "payment:cash": null, "payment:mastercard": null, "payment:visa": null, "payment:visa_debit": null, "phone": null, "website": null, "description": null, "healthcare:speciality": null, "operator": null, "operator:type": null, "check_date": "2023-08-26", "emergency": null, "toilets:wheelchair": null, "check_date:opening_hours": null, "opening_hours:signed": null, "start_date": null, "contact:email": null, "contact:phone": null, "note": null, "alt_name": null, "military": null, "wikidata": null, "wikimedia_commons": null, "wikipedia": null, "building": null, "building:levels": null, "height": null, "disused": null, "disused:amenity": null }, "geometry": { "type": "Point", "coordinates": [ 9.1121925, 39.2142191 ] } },
{ "type": "Feature", "properties": { "element": "node", "id": 11152420755, "addr:city": "Cagliari", "addr:housenumber": "109", "addr:postcode": null, "addr:street": "Via Giuseppe Garibaldi", "amenity": "pharmacy", "healthcare": "pharmacy", "name": "Farmacia Podda", "opening_hours": null, "dispensing": "yes", "wheelchair": null, "name:it": null, "source": null, "email": null, "drive_through": "no", "payment:bancomat": null, "payment:cash": null, "payment:mastercard": null, "payment:visa": null, "payment:visa_debit": null, "phone": null, "website": null, "description": null, "healthcare:speciality": null, "operator": "Farmacia Podda s.n.c.", "operator:type": null, "check_date": null, "emergency": null, "toilets:wheelchair": null, "check_date:opening_hours": null, "opening_hours:signed": null, "start_date": null, "contact:email": "farmaciapodda@gmail.com", "contact:phone": "+39 070 658946", "note": null, "alt_name": null, "military": null, "wikidata": null, "wikimedia_commons": null, "wikipedia": null, "building": null, "building:levels": null, "height": null, "disused": null, "disused:amenity": null }, "geometry": { "type": "Point", "coordinates": [ 9.119152, 39.2166372 ] } },
{ "type": "Feature", "properties": { "element": "node", "id": 11181561115, "addr:city": null, "addr:housenumber": null, "addr:postcode": null, "addr:street": "Viale Poetto", "amenity": "pharmacy", "healthcare": "pharmacy", "name": "Dr. A. M. Camba", "opening_hours": null, "dispensing": null, "wheelchair": null, "name:it": null, "source": null, "email": null, "drive_through": null, "payment:bancomat": null, "payment:cash": null, "payment:mastercard": null, "payment:visa": null, "payment:visa_debit": null, "phone": null, "website": null, "description": null, "healthcare:speciality": null, "operator": null, "operator:type": null, "check_date": "2023-09-14", "emergency": null, "toilets:wheelchair": null, "check_date:opening_hours": null, "opening_hours:signed": null, "start_date": null, "contact:email": null, "contact:phone": null, "note": null, "alt_name": null, "military": null, "wikidata": null, "wikimedia_commons": null, "wikipedia": null, "building": null, "building:levels": null, "height": null, "disused": null, "disused:amenity": null }, "geometry": { "type": "Point", "coordinates": [ 9.1498733, 39.1974004 ] } },
{ "type": "Feature", "properties": { "element": "node", "id": 11189125027, "addr:city": null, "addr:housenumber": "6", "addr:postcode": null, "addr:street": "Via Sant'Ignazio da Laconi", "amenity": null, "healthcare": "psychotherapist", "name": "Dr. Antonio Leone", "opening_hours": null, "dispensing": null, "wheelchair": null, "name:it": null, "source": null, "email": null, "drive_through": null, "payment:bancomat": null, "payment:cash": null, "payment:mastercard": null, "payment:visa": null, "payment:visa_debit": null, "phone": null, "website": null, "description": null, "healthcare:speciality": null, "operator": null, "operator:type": null, "check_date": "2023-09-13", "emergency": null, "toilets:wheelchair": null, "check_date:opening_hours": null, "opening_hours:signed": null, "start_date": null, "contact:email": null, "contact:phone": null, "note": null, "alt_name": null, "military": null, "wikidata": null, "wikimedia_commons": null, "wikipedia": null, "building": null, "building:levels": null, "height": null, "disused": null, "disused:amenity": null }, "geometry": { "type": "Point", "coordinates": [ 9.1107265, 39.2188948 ] } },
{ "type": "Feature", "properties": { "element": "node", "id": 11252358578, "addr:city": "Cagliari", "addr:housenumber": null, "addr:postcode": "09126", "addr:street": "Via Is Guadazzonis", "amenity": null, "healthcare": "counselling", "name": "Genetica Medica (Consulenza Genetica)", "opening_hours": null, "dispensing": null, "wheelchair": null, "name:it": null, "source": null, "email": null, "drive_through": null, "payment:bancomat": null, "payment:cash": null, "payment:mastercard": null, "payment:visa": null, "payment:visa_debit": null, "phone": "+39 070 609 2855", "website": null, "description": null, "healthcare:speciality": "diabetology;blood_check", "operator": null, "operator:type": null, "check_date": null, "emergency": null, "toilets:wheelchair": null, "check_date:opening_hours": null, "opening_hours:signed": null, "start_date": null, "contact:email": null, "contact:phone": null, "note": "Struttura Complessa GENETICA MEDICA Servizio di Consulenza Genetica, Piano: Secondo piano", "alt_name": null, "military": null, "wikidata": null, "wikimedia_commons": null, "wikipedia": null, "building": null, "building:levels": null, "height": null, "disused": null, "disused:amenity": null }, "geometry": { "type": "Point", "coordinates": [ 9.1370805, 39.2104395 ] } },
{ "type": "Feature", "properties": { "element": "node", "id": 12643282991, "addr:city": null, "addr:housenumber": "34", "addr:postcode": null, "addr:street": "Via Marengo", "amenity": null, "healthcare": "psychotherapist", "name": "Serena Musio", "opening_hours": "Mo-Su 09:30-20:00", "dispensing": null, "wheelchair": null, "name:it": null, "source": null, "email": null, "drive_through": null, "payment:bancomat": null, "payment:cash": null, "payment:mastercard": null, "payment:visa": null, "payment:visa_debit": null, "phone": "+39 340 521 8456", "website": "serenamuso.it", "description": null, "healthcare:speciality": null, "operator": null, "operator:type": null, "check_date": null, "emergency": null, "toilets:wheelchair": null, "check_date:opening_hours": null, "opening_hours:signed": null, "start_date": null, "contact:email": "info@serenamuso.it", "contact:phone": null, "note": null, "alt_name": null, "military": null, "wikidata": null, "wikimedia_commons": null, "wikipedia": null, "building": null, "building:levels": null, "height": null, "disused": null, "disused:amenity": null }, "geometry": { "type": "Point", "coordinates": [ 9.109583, 39.2297885 ] } },
{ "type": "Feature", "properties": { "element": "node", "id": 13041525923, "addr:city": null, "addr:housenumber": "6", "addr:postcode": null, "addr:street": "Via Saverio Mattei", "amenity": "dentist", "healthcare": "dentist", "name": "Dentalstaff", "opening_hours": null, "dispensing": null, "wheelchair": null, "name:it": null, "source": null, "email": null, "drive_through": null, "payment:bancomat": null, "payment:cash": null, "payment:mastercard": null, "payment:visa": null, "payment:visa_debit": null, "phone": null, "website": "http://www.dentalstaff.it/", "description": null, "healthcare:speciality": null, "operator": "Dr. Campo Simeoni", "operator:type": null, "check_date": null, "emergency": null, "toilets:wheelchair": null, "check_date:opening_hours": null, "opening_hours:signed": null, "start_date": null, "contact:email": null, "contact:phone": null, "note": null, "alt_name": null, "military": null, "wikidata": null, "wikimedia_commons": null, "wikipedia": null, "building": null, "building:levels": null, "height": null, "disused": null, "disused:amenity": null }, "geometry": { "type": "Point", "coordinates": [ 9.1121739, 39.2347398 ] } },
{ "type": "Feature", "properties": { "element": "way", "id": 156500836, "addr:city": null, "addr:housenumber": null, "addr:postcode": null, "addr:street": null, "amenity": "hospital", "healthcare": "hospital", "name": "Ospedale Militare \"Amerigo Demurtas\"", "opening_hours": null, "dispensing": null, "wheelchair": null, "name:it": null, "source": null, "email": null, "drive_through": null, "payment:bancomat": null, "payment:cash": null, "payment:mastercard": null, "payment:visa": null, "payment:visa_debit": null, "phone": null, "website": null, "description": null, "healthcare:speciality": null, "operator": null, "operator:type": null, "check_date": null, "emergency": null, "toilets:wheelchair": null, "check_date:opening_hours": null, "opening_hours:signed": null, "start_date": null, "contact:email": null, "contact:phone": null, "note": null, "alt_name": "Dipartimento Militare di Medicina Legale", "military": "hospital", "wikidata": null, "wikimedia_commons": null, "wikipedia": null, "building": null, "building:levels": null, "height": null, "disused": null, "disused:amenity": null }, "geometry": { "type": "Polygon", "coordinates": [ [ [ 9.1115193, 39.2188202 ], [ 9.1114557, 39.2186892 ], [ 9.1114667, 39.218658 ], [ 9.1114493, 39.2186303 ], [ 9.1114376, 39.2186117 ], [ 9.111432, 39.2186028 ], [ 9.1114294, 39.2185937 ], [ 9.1114076, 39.2185823 ], [ 9.1112285, 39.2185353 ], [ 9.1110267, 39.218569 ], [ 9.1109824, 39.2186244 ], [ 9.1108074, 39.2189536 ], [ 9.1107185, 39.2191554 ], [ 9.1107078, 39.2191815 ], [ 9.1105836, 39.2194714 ], [ 9.1105287, 39.2195947 ], [ 9.1103607, 39.2199903 ], [ 9.1103339, 39.2200495 ], [ 9.1103138, 39.2201169 ], [ 9.1102328, 39.2203362 ], [ 9.1102156, 39.2204342 ], [ 9.1103214, 39.2204638 ], [ 9.1104514, 39.2204869 ], [ 9.1104578, 39.2204709 ], [ 9.1104718, 39.2204322 ], [ 9.1105339, 39.2202604 ], [ 9.1108516, 39.2193989 ], [ 9.110968, 39.2193855 ], [ 9.1109955, 39.2193821 ], [ 9.1110376, 39.2193769 ], [ 9.1110464, 39.2193949 ], [ 9.1112611, 39.2193323 ], [ 9.1112416, 39.2192923 ], [ 9.1114685, 39.2192261 ], [ 9.1114094, 39.2191043 ], [ 9.1113044, 39.2188828 ], [ 9.1115193, 39.2188202 ] ] ] } },
{ "type": "Feature", "properties": { "element": "way", "id": 156979610, "addr:city": null, "addr:housenumber": null, "addr:postcode": null, "addr:street": null, "amenity": "hospital", "healthcare": "hospital", "name": "Ospedale \"San Giovanni di Dio\"", "opening_hours": null, "dispensing": null, "wheelchair": "no", "name:it": null, "source": null, "email": null, "drive_through": null, "payment:bancomat": null, "payment:cash": null, "payment:mastercard": null, "payment:visa": null, "payment:visa_debit": null, "phone": null, "website": null, "description": null, "healthcare:speciality": null, "operator": null, "operator:type": null, "check_date": null, "emergency": "yes", "toilets:wheelchair": null, "check_date:opening_hours": null, "opening_hours:signed": null, "start_date": null, "contact:email": null, "contact:phone": null, "note": null, "alt_name": "Ospedale Civile", "military": null, "wikidata": "Q3886638", "wikimedia_commons": "Category:Ospedale San Giovanni di Dio", "wikipedia": "it:Ospedale San Giovanni di Dio (Cagliari)", "building": null, "building:levels": null, "height": null, "disused": null, "disused:amenity": null }, "geometry": { "type": "Polygon", "coordinates": [ [ [ 9.1124673, 39.2227203 ], [ 9.1126691, 39.2226623 ], [ 9.1128887, 39.2225488 ], [ 9.1131135, 39.2225109 ], [ 9.1132149, 39.2225181 ], [ 9.1132063, 39.2226145 ], [ 9.1136062, 39.2227083 ], [ 9.1136735, 39.2225768 ], [ 9.1137992, 39.2222947 ], [ 9.1137935, 39.2222674 ], [ 9.1136157, 39.2219973 ], [ 9.1135845, 39.2219832 ], [ 9.1134365, 39.2219464 ], [ 9.1133482, 39.2219205 ], [ 9.113, 39.2218269 ], [ 9.1129824, 39.2218222 ], [ 9.1128869, 39.2217789 ], [ 9.1127954, 39.2216213 ], [ 9.1127449, 39.2215167 ], [ 9.1127876, 39.2215058 ], [ 9.1127698, 39.2214685 ], [ 9.1127274, 39.2214795 ], [ 9.1127037, 39.2214288 ], [ 9.1127462, 39.2214176 ], [ 9.1127279, 39.2213788 ], [ 9.1126731, 39.2213939 ], [ 9.1125599, 39.2211456 ], [ 9.112613, 39.2211316 ], [ 9.1125209, 39.2209357 ], [ 9.1124233, 39.220728 ], [ 9.1123737, 39.2207427 ], [ 9.1122566, 39.2204952 ], [ 9.1123076, 39.2204807 ], [ 9.1122904, 39.2204433 ], [ 9.1122485, 39.2204548 ], [ 9.1122241, 39.2204011 ], [ 9.112266, 39.2203903 ], [ 9.1122497, 39.2203547 ], [ 9.1122071, 39.2203659 ], [ 9.1121325, 39.2201948 ], [ 9.1120989, 39.220203 ], [ 9.1120057, 39.2202263 ], [ 9.1118539, 39.2202706 ], [ 9.1117598, 39.2200582 ], [ 9.1116609, 39.2199102 ], [ 9.1116235, 39.2199134 ], [ 9.1114317, 39.2199869 ], [ 9.1113067, 39.219923 ], [ 9.1110853, 39.2194857 ], [ 9.1110464, 39.2193949 ], [ 9.1110376, 39.2193769 ], [ 9.1109955, 39.2193821 ], [ 9.110968, 39.2193855 ], [ 9.1108516, 39.2193989 ], [ 9.1105339, 39.2202604 ], [ 9.1104718, 39.2204322 ], [ 9.1104578, 39.2204709 ], [ 9.1104514, 39.2204869 ], [ 9.1103214, 39.2204638 ], [ 9.1102156, 39.2204342 ], [ 9.110198, 39.2204721 ], [ 9.1109574, 39.2209657 ], [ 9.1112357, 39.2215515 ], [ 9.1120889, 39.222198 ], [ 9.1124673, 39.2227203 ] ] ] } },
{ "type": "Feature", "properties": { "element": "way", "id": 277184025, "addr:city": null, "addr:housenumber": null, "addr:postcode": null, "addr:street": null, "amenity": "clinic", "healthcare": "clinic", "name": "Clinica Lay", "opening_hours": null, "dispensing": null, "wheelchair": null, "name:it": null, "source": null, "email": null, "drive_through": null, "payment:bancomat": null, "payment:cash": null, "payment:mastercard": null, "payment:visa": null, "payment:visa_debit": null, "phone": null, "website": null, "description": null, "healthcare:speciality": null, "operator": null, "operator:type": null, "check_date": null, "emergency": null, "toilets:wheelchair": null, "check_date:opening_hours": null, "opening_hours:signed": null, "start_date": null, "contact:email": null, "contact:phone": null, "note": null, "alt_name": null, "military": null, "wikidata": null, "wikimedia_commons": null, "wikipedia": null, "building": "hospital", "building:levels": null, "height": null, "disused": null, "disused:amenity": null }, "geometry": { "type": "Polygon", "coordinates": [ [ [ 9.1103824, 39.2197333 ], [ 9.110302, 39.2197117 ], [ 9.1102766, 39.2196932 ], [ 9.1101438, 39.2196539 ], [ 9.110105, 39.2196434 ], [ 9.1100171, 39.2196199 ], [ 9.1099797, 39.21971 ], [ 9.1099854, 39.2197187 ], [ 9.1099738, 39.2197559 ], [ 9.1099733, 39.2197595 ], [ 9.1100021, 39.2197947 ], [ 9.1099879, 39.2198282 ], [ 9.1100221, 39.2198353 ], [ 9.1100176, 39.2198488 ], [ 9.1100357, 39.2198534 ], [ 9.1100194, 39.2198915 ], [ 9.1101195, 39.2199172 ], [ 9.1101308, 39.2198903 ], [ 9.1101692, 39.2199002 ], [ 9.1101256, 39.220003 ], [ 9.1099712, 39.2199634 ], [ 9.1099367, 39.2200558 ], [ 9.110211, 39.2201174 ], [ 9.1103824, 39.2197333 ] ] ] } },
{ "type": "Feature", "properties": { "element": "way", "id": 277184095, "addr:city": null, "addr:housenumber": null, "addr:postcode": null, "addr:street": null, "amenity": "hospital", "healthcare": "hospital", "name": "Ospedale Marino", "opening_hours": null, "dispensing": null, "wheelchair": "yes", "name:it": null, "source": null, "email": null, "drive_through": null, "payment:bancomat": null, "payment:cash": null, "payment:mastercard": null, "payment:visa": null, "payment:visa_debit": null, "phone": null, "website": null, "description": null, "healthcare:speciality": null, "operator": null, "operator:type": null, "check_date": null, "emergency": null, "toilets:wheelchair": null, "check_date:opening_hours": null, "opening_hours:signed": null, "start_date": null, "contact:email": null, "contact:phone": null, "note": null, "alt_name": null, "military": null, "wikidata": null, "wikimedia_commons": null, "wikipedia": null, "building": null, "building:levels": null, "height": null, "disused": null, "disused:amenity": null }, "geometry": { "type": "Polygon", "coordinates": [ [ [ 9.1749659, 39.2137915 ], [ 9.1742175, 39.2133784 ], [ 9.173725, 39.2131082 ], [ 9.1731629, 39.2127999 ], [ 9.1727674, 39.2131573 ], [ 9.172145, 39.2137198 ], [ 9.1711783, 39.2145885 ], [ 9.1717685, 39.2146781 ], [ 9.1718079, 39.2146773 ], [ 9.1737537, 39.2147883 ], [ 9.1740155, 39.2148059 ], [ 9.1749659, 39.2137915 ] ] ] } },
{ "type": "Feature", "properties": { "element": "way", "id": 277184096, "addr:city": null, "addr:housenumber": null, "addr:postcode": null, "addr:street": null, "amenity": "hospital", "healthcare": "hospital", "name": "Ospedale Pediatrico Microcitemico \"Antonio Cao\"", "opening_hours": null, "dispensing": null, "wheelchair": "yes", "name:it": null, "source": null, "email": null, "drive_through": null, "payment:bancomat": null, "payment:cash": null, "payment:mastercard": null, "payment:visa": null, "payment:visa_debit": null, "phone": null, "website": null, "description": null, "healthcare:speciality": null, "operator": "Azienda Ospedaliera Giuseppe Brotzu", "operator:type": null, "check_date": null, "emergency": null, "toilets:wheelchair": "yes", "check_date:opening_hours": null, "opening_hours:signed": null, "start_date": null, "contact:email": null, "contact:phone": null, "note": null, "alt_name": null, "military": null, "wikidata": null, "wikimedia_commons": null, "wikipedia": null, "building": null, "building:levels": null, "height": null, "disused": null, "disused:amenity": null }, "geometry": { "type": "Polygon", "coordinates": [ [ [ 9.1127285, 39.2465761 ], [ 9.1135912, 39.2477128 ], [ 9.1136166, 39.2477332 ], [ 9.1136655, 39.2477535 ], [ 9.1137075, 39.2477588 ], [ 9.1143566, 39.2474656 ], [ 9.1144912, 39.2474028 ], [ 9.1145216, 39.2473896 ], [ 9.1145557, 39.2473529 ], [ 9.1145826, 39.2473186 ], [ 9.1147512, 39.246838 ], [ 9.1146684, 39.2467506 ], [ 9.114631, 39.2467333 ], [ 9.1143075, 39.2465646 ], [ 9.1137061, 39.246251 ], [ 9.1134881, 39.2461734 ], [ 9.1134245, 39.2461824 ], [ 9.1133695, 39.246198 ], [ 9.1133304, 39.246217 ], [ 9.1132793, 39.2462549 ], [ 9.1129873, 39.2465137 ], [ 9.1129444, 39.2465589 ], [ 9.1128097, 39.24649 ], [ 9.1127285, 39.2465761 ] ] ] } },
{ "type": "Feature", "properties": { "element": "way", "id": 277184097, "addr:city": null, "addr:housenumber": null, "addr:postcode": null, "addr:street": null, "amenity": "hospital", "healthcare": "hospital", "name": "Ospedale Oncologico \"Armando Businco\"", "opening_hours": null, "dispensing": null, "wheelchair": "yes", "name:it": null, "source": null, "email": null, "drive_through": null, "payment:bancomat": null, "payment:cash": null, "payment:mastercard": null, "payment:visa": null, "payment:visa_debit": null, "phone": null, "website": null, "description": null, "healthcare:speciality": null, "operator": "Azienda Ospedaliera Giuseppe Brotzu", "operator:type": null, "check_date": null, "emergency": null, "toilets:wheelchair": "yes", "check_date:opening_hours": null, "opening_hours:signed": null, "start_date": null, "contact:email": null, "contact:phone": null, "note": null, "alt_name": null, "military": null, "wikidata": null, "wikimedia_commons": null, "wikipedia": null, "building": null, "building:levels": null, "height": null, "disused": null, "disused:amenity": null }, "geometry": { "type": "Polygon", "coordinates": [ [ [ 9.1140083, 39.2448743 ], [ 9.1134595, 39.2456516 ], [ 9.1134054, 39.2459256 ], [ 9.1134604, 39.2460178 ], [ 9.1135606, 39.246085 ], [ 9.1146979, 39.2466666 ], [ 9.1147785, 39.2464293 ], [ 9.1149998, 39.2458322 ], [ 9.1152319, 39.2451909 ], [ 9.1152444, 39.2451518 ], [ 9.1150936, 39.2451236 ], [ 9.114968, 39.2451484 ], [ 9.1148677, 39.2451478 ], [ 9.1147521, 39.245118 ], [ 9.1144888, 39.2449838 ], [ 9.1144249, 39.2450189 ], [ 9.1143152, 39.2449945 ], [ 9.1140083, 39.2448743 ] ] ] } },
{ "type": "Feature", "properties": { "element": "way", "id": 277185848, "addr:city": null, "addr:housenumber": null, "addr:postcode": null, "addr:street": null, "amenity": null, "healthcare": "laboratory", "name": "ARPAS", "opening_hours": null, "dispensing": null, "wheelchair": null, "name:it": null, "source": null, "email": null, "drive_through": null, "payment:bancomat": null, "payment:cash": null, "payment:mastercard": null, "payment:visa": null, "payment:visa_debit": null, "phone": null, "website": null, "description": null, "healthcare:speciality": null, "operator": null, "operator:type": null, "check_date": null, "emergency": null, "toilets:wheelchair": null, "check_date:opening_hours": null, "opening_hours:signed": null, "start_date": null, "contact:email": null, "contact:phone": null, "note": null, "alt_name": null, "military": null, "wikidata": null, "wikimedia_commons": null, "wikipedia": null, "building": "yes", "building:levels": null, "height": null, "disused": null, "disused:amenity": null }, "geometry": { "type": "Polygon", "coordinates": [ [ [ 9.1203527, 39.2314073 ], [ 9.1202063, 39.2311554 ], [ 9.1202791, 39.2311298 ], [ 9.1202997, 39.2311652 ], [ 9.1204276, 39.2311203 ], [ 9.120341, 39.2309713 ], [ 9.1202124, 39.2310164 ], [ 9.1202543, 39.2310885 ], [ 9.1201793, 39.2311148 ], [ 9.1201594, 39.2310806 ], [ 9.1198161, 39.2312013 ], [ 9.1198823, 39.2313158 ], [ 9.1200554, 39.2312502 ], [ 9.1201816, 39.2314674 ], [ 9.1203527, 39.2314073 ] ] ] } },
{ "type": "Feature", "properties": { "element": "way", "id": 277185886, "addr:city": null, "addr:housenumber": null, "addr:postcode": null, "addr:street": null, "amenity": null, "healthcare": "hospice", "name": "Casa Lions", "opening_hours": null, "dispensing": null, "wheelchair": null, "name:it": null, "source": null, "email": null, "drive_through": null, "payment:bancomat": null, "payment:cash": null, "payment:mastercard": null, "payment:visa": null, "payment:visa_debit": null, "phone": null, "website": null, "description": null, "healthcare:speciality": null, "operator": null, "operator:type": null, "check_date": null, "emergency": null, "toilets:wheelchair": null, "check_date:opening_hours": null, "opening_hours:signed": null, "start_date": null, "contact:email": null, "contact:phone": null, "note": null, "alt_name": null, "military": null, "wikidata": null, "wikimedia_commons": null, "wikipedia": null, "building": "public", "building:levels": null, "height": null, "disused": null, "disused:amenity": null }, "geometry": { "type": "Polygon", "coordinates": [ [ [ 9.1149219, 39.2440218 ], [ 9.1149423, 39.2439751 ], [ 9.1149974, 39.2439896 ], [ 9.1150595, 39.2438472 ], [ 9.1149449, 39.243817 ], [ 9.1149517, 39.2438015 ], [ 9.11481, 39.2437641 ], [ 9.1146961, 39.2440255 ], [ 9.1147578, 39.2440417 ], [ 9.1147512, 39.2440567 ], [ 9.1147678, 39.2440611 ], [ 9.1146778, 39.2442675 ], [ 9.1148167, 39.2443041 ], [ 9.1149379, 39.2440261 ], [ 9.1149219, 39.2440218 ] ] ] } },
{ "type": "Feature", "properties": { "element": "way", "id": 277186598, "addr:city": "Cagliari", "addr:housenumber": "85", "addr:postcode": "09129", "addr:street": "Via Antonio Scano", "amenity": "clinic", "healthcare": "clinic", "name": "Korian Casa di cura San Salvatore", "opening_hours": null, "dispensing": null, "wheelchair": null, "name:it": null, "source": null, "email": null, "drive_through": null, "payment:bancomat": null, "payment:cash": null, "payment:mastercard": null, "payment:visa": null, "payment:visa_debit": null, "phone": null, "website": null, "description": null, "healthcare:speciality": null, "operator": null, "operator:type": null, "check_date": null, "emergency": null, "toilets:wheelchair": null, "check_date:opening_hours": null, "opening_hours:signed": null, "start_date": null, "contact:email": null, "contact:phone": null, "note": null, "alt_name": null, "military": null, "wikidata": null, "wikimedia_commons": null, "wikipedia": null, "building": "hospital", "building:levels": "4", "height": "12", "disused": null, "disused:amenity": null }, "geometry": { "type": "Polygon", "coordinates": [ [ [ 9.1307082, 39.2181493 ], [ 9.1308008, 39.2181463 ], [ 9.1308058, 39.2181796 ], [ 9.1308969, 39.2181779 ], [ 9.1308936, 39.2181111 ], [ 9.1309102, 39.2181106 ], [ 9.1309028, 39.2179742 ], [ 9.1308868, 39.2179747 ], [ 9.1308833, 39.217909 ], [ 9.1307968, 39.2179113 ], [ 9.1307934, 39.2179354 ], [ 9.1307678, 39.2179406 ], [ 9.130723, 39.2179416 ], [ 9.1306995, 39.2179386 ], [ 9.1306933, 39.2179141 ], [ 9.130603, 39.2179165 ], [ 9.1306154, 39.2181831 ], [ 9.1307063, 39.2181814 ], [ 9.1307082, 39.2181493 ] ] ] } },
{ "type": "Feature", "properties": { "element": "way", "id": 277187824, "addr:city": null, "addr:housenumber": null, "addr:postcode": null, "addr:street": null, "amenity": null, "healthcare": "hospice", "name": "Hospice di Cagliari", "opening_hours": null, "dispensing": null, "wheelchair": null, "name:it": null, "source": null, "email": null, "drive_through": null, "payment:bancomat": null, "payment:cash": null, "payment:mastercard": null, "payment:visa": null, "payment:visa_debit": null, "phone": null, "website": null, "description": null, "healthcare:speciality": null, "operator": null, "operator:type": null, "check_date": null, "emergency": null, "toilets:wheelchair": null, "check_date:opening_hours": null, "opening_hours:signed": null, "start_date": null, "contact:email": null, "contact:phone": null, "note": null, "alt_name": null, "military": null, "wikidata": null, "wikimedia_commons": null, "wikipedia": null, "building": "public", "building:levels": null, "height": null, "disused": null, "disused:amenity": null }, "geometry": { "type": "Polygon", "coordinates": [ [ [ 9.1155295, 39.243634 ], [ 9.1155676, 39.2435832 ], [ 9.1155709, 39.2435847 ], [ 9.1155801, 39.2435724 ], [ 9.1155717, 39.2435686 ], [ 9.115588, 39.2435468 ], [ 9.1155649, 39.2435364 ], [ 9.1155769, 39.2435205 ], [ 9.1154221, 39.2434503 ], [ 9.1154089, 39.2434679 ], [ 9.1153808, 39.2434552 ], [ 9.1153929, 39.2434391 ], [ 9.1152408, 39.24337 ], [ 9.1152185, 39.2433998 ], [ 9.1151866, 39.2433853 ], [ 9.1151977, 39.2433704 ], [ 9.1150879, 39.2433206 ], [ 9.1150243, 39.2434054 ], [ 9.1150475, 39.2434159 ], [ 9.1150282, 39.2434416 ], [ 9.1149895, 39.243424 ], [ 9.1149018, 39.2435408 ], [ 9.1150477, 39.243607 ], [ 9.1151332, 39.2434886 ], [ 9.115097, 39.2434733 ], [ 9.115114, 39.2434467 ], [ 9.1151446, 39.2434397 ], [ 9.1151767, 39.2434543 ], [ 9.115155, 39.2434832 ], [ 9.115307, 39.2435521 ], [ 9.1153295, 39.2435222 ], [ 9.1153592, 39.2435357 ], [ 9.1153382, 39.2435637 ], [ 9.1154904, 39.2436327 ], [ 9.1154996, 39.2436204 ], [ 9.1155295, 39.243634 ] ] ] } },
{ "type": "Feature", "properties": { "element": "way", "id": 277192033, "addr:city": null, "addr:housenumber": null, "addr:postcode": null, "addr:street": null, "amenity": "clinic", "healthcare": "clinic", "name": "Clinica privata San Michele", "opening_hours": null, "dispensing": null, "wheelchair": null, "name:it": null, "source": null, "email": null, "drive_through": null, "payment:bancomat": null, "payment:cash": null, "payment:mastercard": null, "payment:visa": null, "payment:visa_debit": null, "phone": null, "website": null, "description": null, "healthcare:speciality": null, "operator": null, "operator:type": null, "check_date": null, "emergency": null, "toilets:wheelchair": null, "check_date:opening_hours": null, "opening_hours:signed": null, "start_date": null, "contact:email": null, "contact:phone": null, "note": null, "alt_name": null, "military": null, "wikidata": null, "wikimedia_commons": null, "wikipedia": null, "building": "yes", "building:levels": null, "height": null, "disused": "yes", "disused:amenity": "clinica sanitaria" }, "geometry": { "type": "Polygon", "coordinates": [ [ [ 9.1109057, 39.2487084 ], [ 9.1109395, 39.2486971 ], [ 9.1109495, 39.2487146 ], [ 9.1115562, 39.2485116 ], [ 9.1117377, 39.2484279 ], [ 9.1117157, 39.2483996 ], [ 9.1117305, 39.2483923 ], [ 9.1117375, 39.2484009 ], [ 9.1117526, 39.2483935 ], [ 9.1117683, 39.2484121 ], [ 9.112187, 39.2482096 ], [ 9.112167, 39.2481823 ], [ 9.1122103, 39.2481581 ], [ 9.1120588, 39.2478861 ], [ 9.1119393, 39.2479251 ], [ 9.1118561, 39.2477793 ], [ 9.1118135, 39.2477927 ], [ 9.1117868, 39.2477439 ], [ 9.1114046, 39.2478734 ], [ 9.1113207, 39.2477203 ], [ 9.1113346, 39.2477142 ], [ 9.1113156, 39.2476829 ], [ 9.1113302, 39.2476549 ], [ 9.1113959, 39.2476339 ], [ 9.111366, 39.2475843 ], [ 9.1114096, 39.2475019 ], [ 9.1112662, 39.2474581 ], [ 9.1112379, 39.2475071 ], [ 9.1110875, 39.2474616 ], [ 9.1110769, 39.2474789 ], [ 9.1105684, 39.2473225 ], [ 9.1101898, 39.2474523 ], [ 9.1103069, 39.2477763 ], [ 9.1105773, 39.248264 ], [ 9.1106129, 39.2482526 ], [ 9.1106308, 39.2482822 ], [ 9.1106118, 39.2482884 ], [ 9.1106188, 39.2483028 ], [ 9.1107521, 39.2482595 ], [ 9.1108114, 39.2483655 ], [ 9.1109936, 39.2483036 ], [ 9.1109684, 39.2482591 ], [ 9.1111712, 39.2481899 ], [ 9.1112319, 39.2482878 ], [ 9.1111761, 39.2483062 ], [ 9.1111954, 39.2483431 ], [ 9.1111591, 39.2483543 ], [ 9.1111389, 39.2483185 ], [ 9.1107082, 39.2484617 ], [ 9.1107285, 39.2484999 ], [ 9.1107113, 39.2485051 ], [ 9.1108177, 39.2486968 ], [ 9.1108003, 39.2487026 ], [ 9.1108378, 39.2487704 ], [ 9.1108892, 39.2487526 ], [ 9.110882, 39.2487372 ], [ 9.110915, 39.2487262 ], [ 9.1109057, 39.2487084 ] ] ] } },
{ "type": "Feature", "properties": { "element": "way", "id": 353789595, "addr:city": null, "addr:housenumber": null, "addr:postcode": null, "addr:street": null, "amenity": "hospital", "healthcare": "hospital", "name": "Ospedale Santissima Trinità", "opening_hours": null, "dispensing": null, "wheelchair": "yes", "name:it": null, "source": null, "email": null, "drive_through": null, "payment:bancomat": null, "payment:cash": null, "payment:mastercard": null, "payment:visa": null, "payment:visa_debit": null, "phone": null, "website": null, "description": null, "healthcare:speciality": null, "operator": null, "operator:type": null, "check_date": null, "emergency": null, "toilets:wheelchair": null, "check_date:opening_hours": null, "opening_hours:signed": null, "start_date": null, "contact:email": null, "contact:phone": null, "note": null, "alt_name": null, "military": null, "wikidata": null, "wikimedia_commons": null, "wikipedia": null, "building": null, "building:levels": null, "height": null, "disused": null, "disused:amenity": null }, "geometry": { "type": "Polygon", "coordinates": [ [ [ 9.1058218, 39.2369401 ], [ 9.1071952, 39.2363167 ], [ 9.1074288, 39.2362204 ], [ 9.1074118, 39.2361957 ], [ 9.1074571, 39.2361766 ], [ 9.1074949, 39.2361605 ], [ 9.1078014, 39.2360315 ], [ 9.1078087, 39.236042 ], [ 9.1078779, 39.2360128 ], [ 9.1078706, 39.2360023 ], [ 9.1081353, 39.235891 ], [ 9.1081735, 39.2358976 ], [ 9.1083186, 39.2358407 ], [ 9.108534, 39.2357509 ], [ 9.1089014, 39.2355988 ], [ 9.1090312, 39.2355294 ], [ 9.1087556, 39.2351381 ], [ 9.1084993, 39.2347742 ], [ 9.108273, 39.234453 ], [ 9.1081802, 39.2343212 ], [ 9.1072844, 39.2346962 ], [ 9.1071608, 39.2345017 ], [ 9.1064937, 39.2347696 ], [ 9.1064446, 39.2346906 ], [ 9.1062203, 39.2347677 ], [ 9.1057473, 39.2347987 ], [ 9.1057018, 39.234733 ], [ 9.1055944, 39.2345811 ], [ 9.1051976, 39.2347326 ], [ 9.1051528, 39.2347607 ], [ 9.1051091, 39.2347949 ], [ 9.1046435, 39.2352551 ], [ 9.1047862, 39.2354597 ], [ 9.1058218, 39.2369401 ] ] ] } },
{ "type": "Feature", "properties": { "element": "way", "id": 353793728, "addr:city": "Cagliari", "addr:housenumber": "2", "addr:postcode": "09126", "addr:street": "Via Is Guadazzonis", "amenity": "hospital", "healthcare": "hospital", "name": "Ospedale \"Roberto Binaghi\"", "opening_hours": null, "dispensing": null, "wheelchair": null, "name:it": null, "source": null, "email": null, "drive_through": null, "payment:bancomat": null, "payment:cash": null, "payment:mastercard": null, "payment:visa": null, "payment:visa_debit": null, "phone": null, "website": null, "description": null, "healthcare:speciality": null, "operator": "ASSL Cagliari", "operator:type": "public", "check_date": null, "emergency": null, "toilets:wheelchair": null, "check_date:opening_hours": null, "opening_hours:signed": null, "start_date": null, "contact:email": null, "contact:phone": null, "note": null, "alt_name": null, "military": null, "wikidata": null, "wikimedia_commons": null, "wikipedia": null, "building": null, "building:levels": null, "height": null, "disused": null, "disused:amenity": null }, "geometry": { "type": "Polygon", "coordinates": [ [ [ 9.1385177, 39.2115537 ], [ 9.1381125, 39.211212 ], [ 9.1379539, 39.2111937 ], [ 9.1376348, 39.2114578 ], [ 9.1373497, 39.2118464 ], [ 9.1371783, 39.2119761 ], [ 9.1371405, 39.2122021 ], [ 9.1369544, 39.2126487 ], [ 9.1370559, 39.2129568 ], [ 9.1368943, 39.2131871 ], [ 9.1367814, 39.2133349 ], [ 9.1364142, 39.2134029 ], [ 9.1361049, 39.2133324 ], [ 9.1357162, 39.21274 ], [ 9.1356072, 39.2123888 ], [ 9.1354244, 39.2116962 ], [ 9.1353808, 39.2115954 ], [ 9.1352977, 39.2114988 ], [ 9.1349768, 39.2110878 ], [ 9.1347582, 39.2106423 ], [ 9.1346874, 39.2104988 ], [ 9.1345911, 39.2102959 ], [ 9.1342967, 39.2099343 ], [ 9.1344101, 39.2098348 ], [ 9.1344992, 39.2097953 ], [ 9.134625, 39.2096808 ], [ 9.1346768, 39.2096336 ], [ 9.134905, 39.2094099 ], [ 9.1350153, 39.2093303 ], [ 9.1350016, 39.2093177 ], [ 9.1351159, 39.2092402 ], [ 9.1351561, 39.2092218 ], [ 9.1353242, 39.2092247 ], [ 9.1356246, 39.2092912 ], [ 9.1359894, 39.2093951 ], [ 9.136271, 39.2094937 ], [ 9.1362945, 39.2095098 ], [ 9.1363084, 39.2095151 ], [ 9.1363888, 39.2095444 ], [ 9.1364459, 39.2095654 ], [ 9.1365121, 39.2095852 ], [ 9.1365588, 39.2096015 ], [ 9.1365923, 39.209621 ], [ 9.1366452, 39.2096439 ], [ 9.1369309, 39.2097538 ], [ 9.1371533, 39.2098378 ], [ 9.1380787, 39.2101085 ], [ 9.1381809, 39.210143 ], [ 9.1383228, 39.2101973 ], [ 9.1386508, 39.2103373 ], [ 9.1387625, 39.210385 ], [ 9.1393596, 39.2106283 ], [ 9.1394684, 39.2106757 ], [ 9.1398231, 39.210774 ], [ 9.1399311, 39.2108135 ], [ 9.1385177, 39.2115537 ] ] ] } },
{ "type": "Feature", "properties": { "element": "way", "id": 402013044, "addr:city": "Cagliari", "addr:housenumber": "1", "addr:postcode": "09121", "addr:street": "Piazzale Alessandro Ricchi", "amenity": "hospital", "healthcare": "hospital", "name": "Ospedale San Michele", "opening_hours": null, "dispensing": null, "wheelchair": null, "name:it": null, "source": null, "email": null, "drive_through": null, "payment:bancomat": null, "payment:cash": null, "payment:mastercard": null, "payment:visa": null, "payment:visa_debit": null, "phone": null, "website": null, "description": null, "healthcare:speciality": null, "operator": "Azienda Ospedaliera Giuseppe Brotzu", "operator:type": null, "check_date": null, "emergency": null, "toilets:wheelchair": null, "check_date:opening_hours": null, "opening_hours:signed": null, "start_date": null, "contact:email": null, "contact:phone": null, "note": null, "alt_name": "Azienda Ospedaliera Giuseppe Brotzu", "military": null, "wikidata": null, "wikimedia_commons": null, "wikipedia": null, "building": null, "building:levels": null, "height": null, "disused": null, "disused:amenity": null }, "geometry": { "type": "Polygon", "coordinates": [ [ [ 9.1090346, 39.2507898 ], [ 9.1090942, 39.2507768 ], [ 9.1091303, 39.2507753 ], [ 9.1091643, 39.2507781 ], [ 9.1091935, 39.250784 ], [ 9.1092306, 39.2507965 ], [ 9.109425, 39.2508276 ], [ 9.1096775, 39.2507889 ], [ 9.1114839, 39.2503598 ], [ 9.1111572, 39.249572 ], [ 9.1108762, 39.2490322 ], [ 9.1108186, 39.2489216 ], [ 9.1107841, 39.2488554 ], [ 9.1107526, 39.2487903 ], [ 9.1102195, 39.247687 ], [ 9.1098627, 39.2478096 ], [ 9.109734, 39.2478013 ], [ 9.1081837, 39.2477265 ], [ 9.1081434, 39.2477327 ], [ 9.1081059, 39.2477431 ], [ 9.1073736, 39.248009 ], [ 9.1070437, 39.2481876 ], [ 9.1067326, 39.2489603 ], [ 9.1067272, 39.2490081 ], [ 9.1067299, 39.249195 ], [ 9.106754, 39.249276 ], [ 9.1067701, 39.2493508 ], [ 9.1067916, 39.2494401 ], [ 9.1068184, 39.2495087 ], [ 9.1068452, 39.2495648 ], [ 9.1068694, 39.2496188 ], [ 9.1068962, 39.2496582 ], [ 9.106974, 39.249733 ], [ 9.1071912, 39.2498389 ], [ 9.1071161, 39.2499096 ], [ 9.1070625, 39.2499469 ], [ 9.1069472, 39.2499926 ], [ 9.1071919, 39.2502601 ], [ 9.107468, 39.2501762 ], [ 9.1074903, 39.2501691 ], [ 9.1075145, 39.2502101 ], [ 9.1081279, 39.2511829 ], [ 9.1081455, 39.2512108 ], [ 9.1082325, 39.251189 ], [ 9.1082868, 39.25117 ], [ 9.1083359, 39.2511454 ], [ 9.1084334, 39.2511136 ], [ 9.1085104, 39.2511061 ], [ 9.1085914, 39.2510822 ], [ 9.1086544, 39.2510638 ], [ 9.1089441, 39.2508469 ], [ 9.1089828, 39.2508147 ], [ 9.1090346, 39.2507898 ] ] ] } },
{ "type": "Feature", "properties": { "element": "way", "id": 807538965, "addr:city": null, "addr:housenumber": null, "addr:postcode": null, "addr:street": null, "amenity": "hospital", "healthcare": "hospital", "name": "Cittadella della Salute", "opening_hours": null, "dispensing": null, "wheelchair": null, "name:it": null, "source": null, "email": null, "drive_through": null, "payment:bancomat": null, "payment:cash": null, "payment:mastercard": null, "payment:visa": null, "payment:visa_debit": null, "phone": null, "website": null, "description": null, "healthcare:speciality": null, "operator": null, "operator:type": null, "check_date": null, "emergency": null, "toilets:wheelchair": null, "check_date:opening_hours": null, "opening_hours:signed": null, "start_date": null, "contact:email": null, "contact:phone": null, "note": null, "alt_name": null, "military": null, "wikidata": null, "wikimedia_commons": null, "wikipedia": null, "building": null, "building:levels": null, "height": null, "disused": null, "disused:amenity": null }, "geometry": { "type": "Polygon", "coordinates": [ [ [ 9.1201406, 39.2339508 ], [ 9.1196949, 39.2344773 ], [ 9.11938, 39.2343313 ], [ 9.1192564, 39.2342784 ], [ 9.1191245, 39.2342161 ], [ 9.1187331, 39.2340274 ], [ 9.1180994, 39.2337348 ], [ 9.1179845, 39.2336812 ], [ 9.1177059, 39.2336999 ], [ 9.1171998, 39.2337118 ], [ 9.1167416, 39.2335517 ], [ 9.1167128, 39.2328435 ], [ 9.1161302, 39.2324723 ], [ 9.1149865, 39.2318659 ], [ 9.1158922, 39.2311679 ], [ 9.1159991, 39.2310462 ], [ 9.1162276, 39.2307863 ], [ 9.1163349, 39.2307343 ], [ 9.1164046, 39.230699 ], [ 9.1164878, 39.2306429 ], [ 9.1165763, 39.2305785 ], [ 9.1167372, 39.2304455 ], [ 9.1168526, 39.2303396 ], [ 9.1169813, 39.2302004 ], [ 9.1170781, 39.2300775 ], [ 9.117087, 39.2300663 ], [ 9.1171126, 39.2300406 ], [ 9.1174137, 39.2297378 ], [ 9.1175528, 39.2295642 ], [ 9.1176773, 39.2293852 ], [ 9.1184149, 39.2297683 ], [ 9.1191625, 39.2289913 ], [ 9.1192146, 39.2289371 ], [ 9.1192625, 39.2289562 ], [ 9.1193415, 39.2289861 ], [ 9.1193526, 39.2289924 ], [ 9.119408, 39.2290235 ], [ 9.119416, 39.2290269 ], [ 9.1194386, 39.2290365 ], [ 9.1194816, 39.2290547 ], [ 9.1195817, 39.2291025 ], [ 9.1191652, 39.2296019 ], [ 9.1189736, 39.2300735 ], [ 9.1191361, 39.2301449 ], [ 9.1193997, 39.2302692 ], [ 9.1194658, 39.230301 ], [ 9.1195135, 39.2303241 ], [ 9.1199367, 39.2305249 ], [ 9.120136, 39.2304751 ], [ 9.120197, 39.230617 ], [ 9.1202503, 39.2307325 ], [ 9.1200734, 39.2307874 ], [ 9.1196673, 39.2312548 ], [ 9.1197874, 39.2314558 ], [ 9.1198662, 39.2314614 ], [ 9.1199653, 39.231622 ], [ 9.1201417, 39.2316164 ], [ 9.1201515, 39.2319405 ], [ 9.1205279, 39.2319355 ], [ 9.1205231, 39.2319891 ], [ 9.1204669, 39.2322587 ], [ 9.1203227, 39.2328408 ], [ 9.1203122, 39.2328834 ], [ 9.1203084, 39.2328987 ], [ 9.1202162, 39.2334252 ], [ 9.1201838, 39.2336099 ], [ 9.1201829, 39.2336174 ], [ 9.1201731, 39.2337043 ], [ 9.12018, 39.233744 ], [ 9.1201826, 39.2338062 ], [ 9.1201763, 39.2338601 ], [ 9.1201406, 39.2339508 ] ] ] } },
{ "type": "Feature", "properties": { "element": "way", "id": 1177639229, "addr:city": null, "addr:housenumber": "9 / A", "addr:postcode": null, "addr:street": "Via Favonio", "amenity": "hospital", "healthcare": "hospital", "name": "Farmacia SORESI", "opening_hours": null, "dispensing": null, "wheelchair": null, "name:it": null, "source": null, "email": null, "drive_through": null, "payment:bancomat": null, "payment:cash": null, "payment:mastercard": null, "payment:visa": null, "payment:visa_debit": null, "phone": null, "website": null, "description": null, "healthcare:speciality": null, "operator": null, "operator:type": null, "check_date": null, "emergency": null, "toilets:wheelchair": null, "check_date:opening_hours": null, "opening_hours:signed": null, "start_date": null, "contact:email": null, "contact:phone": null, "note": null, "alt_name": null, "military": null, "wikidata": null, "wikimedia_commons": null, "wikipedia": null, "building": null, "building:levels": null, "height": null, "disused": null, "disused:amenity": null }, "geometry": { "type": "Polygon", "coordinates": [ [ [ 9.1458374, 39.2013146 ], [ 9.1458864, 39.2013678 ], [ 9.1460112, 39.2012573 ], [ 9.1459837, 39.2012283 ], [ 9.1458374, 39.2013146 ] ] ] } }
]
}
